{
"type": "FeatureCollection",
"name": "cleaned_drainage",
"crs": { "type": "name", "properties": { "name": "urn:ogc:def:crs:OGC:1.3:CRS84" } },
"features": [
{ "type": "Feature", "properties": { "waterway": "drain", "id": "way/27877877" }, "geometry": { "type": "LineString", "coordinates": [ [ 80.1933816, 13.0787676 ], [ 80.192736, 13.0790372 ], [ 80.192025, 13.078435 ], [ 80.1918402, 13.0783555 ], [ 80.191646, 13.0783684 ], [ 80.1891796, 13.0800404 ], [ 80.1895462, 13.0813903 ], [ 80.1897738, 13.0820663 ], [ 80.1899641, 13.0824661 ], [ 80.1900551, 13.0825733 ], [ 80.1913112, 13.0856251 ], [ 80.192221, 13.087665 ], [ 80.1923154, 13.0890277 ], [ 80.1922554, 13.0902399 ], [ 80.1915258, 13.092355 ] ] } }
]
}
