{
"type": "FeatureCollection",
"name": "cleaned_water_bodies",
"crs": { "type": "name", "properties": { "name": "urn:ogc:def:crs:OGC:1.3:CRS84" } },
"features": [
{ "type": "Feature", "properties": { "natural": "water", "water": "river", "name": null, "id": "relation/12669711" }, "geometry": { "type": "Polygon", "coordinates": [ [ [ 80.2692661, 13.0683546 ], [ 80.2692886, 13.0684337 ], [ 80.2693722, 13.0686183 ], [ 80.2694401, 13.0691445 ], [ 80.2694231, 13.0697896 ], [ 80.2691175, 13.0706157 ], [ 80.268829, 13.0712042 ], [ 80.2684895, 13.0716795 ], [ 80.2668712, 13.0733261 ], [ 80.2663789, 13.0739145 ], [ 80.2661129, 13.0744464 ], [ 80.266045, 13.07495 ], [ 80.2659758, 13.0756015 ], [ 80.2662244, 13.0763099 ], [ 80.2663363, 13.0769741 ], [ 80.2665048, 13.0775031 ], [ 80.2669683, 13.0785231 ], [ 80.2675667, 13.0791299 ], [ 80.2675949, 13.0791585 ], [ 80.26831, 13.0794365 ], [ 80.2688438, 13.0794522 ], [ 80.269627, 13.0793921 ], [ 80.2700374, 13.0793241 ], [ 80.2703646, 13.079136 ], [ 80.2710405, 13.0787938 ], [ 80.271821, 13.0784071 ], [ 80.2724165, 13.0780884 ], [ 80.2728188, 13.0778036 ], [ 80.2730951, 13.0774666 ], [ 80.2734464, 13.0767089 ], [ 80.2736825, 13.07598 ], [ 80.2737844, 13.07598 ], [ 80.2740982, 13.0746971 ], [ 80.2743801, 13.0732301 ], [ 80.2744113, 13.0729476 ], [ 80.2744335, 13.0727873 ], [ 80.2743342, 13.0727428 ], [ 80.2743396, 13.0727141 ], [ 80.2744469, 13.0727115 ], [ 80.2745499, 13.0722061 ], [ 80.2748268, 13.0719195 ], [ 80.2752621, 13.0717317 ], [ 80.2756469, 13.0715388 ], [ 80.2770048, 13.070442 ], [ 80.2773238, 13.0702308 ], [ 80.2777479, 13.0699603 ], [ 80.2781608, 13.0696987 ], [ 80.2782873, 13.0696225 ], [ 80.278384, 13.0695712 ], [ 80.2784696, 13.0695298 ], [ 80.2785359, 13.0694748 ], [ 80.2785952, 13.0694161 ], [ 80.2788643, 13.0692308 ], [ 80.2789942, 13.0691561 ], [ 80.2791397, 13.0690976 ], [ 80.2792323, 13.0690579 ], [ 80.2792899, 13.0690058 ], [ 80.2793495, 13.068953 ], [ 80.2794574, 13.0688925 ], [ 80.2795202, 13.0688437 ], [ 80.2796069, 13.0687956 ], [ 80.2797021, 13.0687588 ], [ 80.2797548, 13.068747 ], [ 80.2798447, 13.0687412 ], [ 80.2799746, 13.0687213 ], [ 80.2802216, 13.0686689 ], [ 80.2804132, 13.0686125 ], [ 80.2804758, 13.0685911 ], [ 80.280459, 13.0685406 ], [ 80.280524, 13.0685179 ], [ 80.2805445, 13.0685676 ], [ 80.2806281, 13.0685391 ], [ 80.280748, 13.068507 ], [ 80.280951, 13.0684649 ], [ 80.2811849, 13.0684147 ], [ 80.2813784, 13.0683654 ], [ 80.2815496, 13.0683113 ], [ 80.2816749, 13.0682739 ], [ 80.2818058, 13.068239 ], [ 80.2818978, 13.0682198 ], [ 80.2821183, 13.0681958 ], [ 80.2822465, 13.0681677 ], [ 80.2823092, 13.0681375 ], [ 80.2823835, 13.0680977 ], [ 80.2824339, 13.0680623 ], [ 80.2826392, 13.0680579 ], [ 80.2826756, 13.0680964 ], [ 80.2827297, 13.0681599 ], [ 80.2828094, 13.0682101 ], [ 80.2829114, 13.0682291 ], [ 80.2830582, 13.068228 ], [ 80.2833704, 13.0682057 ], [ 80.2837272, 13.0681774 ], [ 80.2839275, 13.0681608 ], [ 80.2839784, 13.0681573 ], [ 80.2840122, 13.0681621 ], [ 80.284093, 13.0681705 ], [ 80.2841397, 13.0681742 ], [ 80.2841758, 13.0681737 ], [ 80.2847524, 13.0680974 ], [ 80.2850099, 13.0679302 ], [ 80.2868053, 13.0673559 ], [ 80.2871803, 13.0670958 ], [ 80.2875568, 13.0668042 ], [ 80.2876913, 13.0667041 ], [ 80.2878722, 13.0665998 ], [ 80.2880525, 13.0665073 ], [ 80.2881744, 13.0664278 ], [ 80.2883436, 13.0663805 ], [ 80.2884463, 13.0663523 ], [ 80.2885948, 13.0662909 ], [ 80.2887166, 13.0662423 ], [ 80.2888904, 13.0661707 ], [ 80.2890766, 13.0660882 ], [ 80.28928, 13.0660124 ], [ 80.289554, 13.0659225 ], [ 80.2898058, 13.065856 ], [ 80.289978, 13.065829 ], [ 80.2901711, 13.065812 ], [ 80.2903373, 13.0658156 ], [ 80.2904303, 13.0658328 ], [ 80.2905134, 13.0658478 ], [ 80.2905781, 13.0658628 ], [ 80.2906305, 13.0658778 ], [ 80.2906737, 13.0658959 ], [ 80.2907122, 13.0659319 ], [ 80.2907846, 13.0660114 ], [ 80.2908385, 13.0660864 ], [ 80.290897, 13.066175 ], [ 80.2909295, 13.0662314 ], [ 80.2909525, 13.0662635 ], [ 80.2909879, 13.06628 ], [ 80.2910187, 13.06628 ], [ 80.2910511, 13.0662725 ], [ 80.2910942, 13.0662425 ], [ 80.2912636, 13.0668058 ], [ 80.291369, 13.0671563 ], [ 80.2913319, 13.0671649 ], [ 80.2913036, 13.0671839 ], [ 80.2912876, 13.0672322 ], [ 80.2912934, 13.0673864 ], [ 80.2912934, 13.0674795 ], [ 80.2912811, 13.0675785 ], [ 80.2912595, 13.067661 ], [ 80.2912241, 13.0677481 ], [ 80.2911794, 13.0678291 ], [ 80.2911019, 13.0679235 ], [ 80.2910115, 13.0679994 ], [ 80.290878, 13.0680931 ], [ 80.2907407, 13.0681799 ], [ 80.2905751, 13.0682721 ], [ 80.2904099, 13.0683484 ], [ 80.2903113, 13.0683908 ], [ 80.2901214, 13.0684672 ], [ 80.2896458, 13.068647 ], [ 80.28959, 13.068622 ], [ 80.2895521, 13.068549 ], [ 80.2894705, 13.0684053 ], [ 80.2891106, 13.0680509 ], [ 80.2890937, 13.0680131 ], [ 80.2885928, 13.068175 ], [ 80.2883818, 13.0681216 ], [ 80.288243, 13.0681634 ], [ 80.2879628, 13.0682438 ], [ 80.2878773, 13.0682883 ], [ 80.287752, 13.068426 ], [ 80.2876418, 13.0685836 ], [ 80.2869591, 13.0688109 ], [ 80.2862463, 13.0690126 ], [ 80.2860358, 13.0689124 ], [ 80.285791, 13.0690756 ], [ 80.2856478, 13.0691844 ], [ 80.2850801, 13.0693016 ], [ 80.2847945, 13.0693711 ], [ 80.2846135, 13.0694122 ], [ 80.2844851, 13.0694487 ], [ 80.2844435, 13.0694812 ], [ 80.2843941, 13.0695453 ], [ 80.2843569, 13.0696172 ], [ 80.2842987, 13.0697649 ], [ 80.2842494, 13.0699455 ], [ 80.2842068, 13.0701463 ], [ 80.284178, 13.0703 ], [ 80.284246, 13.0704384 ], [ 80.2836895, 13.0706398 ], [ 80.2831283, 13.0700639 ], [ 80.282719, 13.0696937 ], [ 80.2823412, 13.0694187 ], [ 80.2821201, 13.0692631 ], [ 80.2819359, 13.0691838 ], [ 80.2817019, 13.0691219 ], [ 80.2815059, 13.0690818 ], [ 80.2813748, 13.069055 ], [ 80.2812447, 13.0690547 ], [ 80.2811132, 13.0690756 ], [ 80.2806041, 13.0691888 ], [ 80.2800403, 13.0693264 ], [ 80.2797635, 13.0694298 ], [ 80.2796015, 13.069482 ], [ 80.2794518, 13.0695414 ], [ 80.2793028, 13.0696227 ], [ 80.2791699, 13.0697017 ], [ 80.2789918, 13.0698014 ], [ 80.2788797, 13.0698807 ], [ 80.2788126, 13.0699208 ], [ 80.2786505, 13.0700242 ], [ 80.2782733, 13.0702739 ], [ 80.2781352, 13.0703687 ], [ 80.2780058, 13.0704431 ], [ 80.2778693, 13.0705266 ], [ 80.2777871, 13.07059 ], [ 80.2774333, 13.0708154 ], [ 80.2771863, 13.07098 ], [ 80.2769653, 13.0711606 ], [ 80.2768343, 13.0712785 ], [ 80.2766552, 13.0714211 ], [ 80.2764961, 13.0715496 ], [ 80.2763006, 13.0717153 ], [ 80.2761385, 13.0718701 ], [ 80.2759933, 13.0720009 ], [ 80.2759054, 13.0720892 ], [ 80.2758468, 13.0721501 ], [ 80.2757926, 13.0722142 ], [ 80.2757334, 13.0722992 ], [ 80.2756853, 13.0723798 ], [ 80.2755706, 13.0725347 ], [ 80.2752998, 13.0728839 ], [ 80.2751952, 13.0730956 ], [ 80.274986, 13.0738898 ], [ 80.2745998, 13.0753947 ], [ 80.2743182, 13.0767272 ], [ 80.2740714, 13.077524 ], [ 80.2738139, 13.0778088 ], [ 80.2736369, 13.0779917 ], [ 80.2736127, 13.0781563 ], [ 80.2735832, 13.0782242 ], [ 80.273146, 13.0785527 ], [ 80.2725733, 13.0788505 ], [ 80.2722351, 13.0789636 ], [ 80.2703711, 13.0798393 ], [ 80.2695947, 13.0800781 ], [ 80.2688394, 13.0800948 ], [ 80.2680669, 13.0799443 ], [ 80.2671228, 13.0795514 ], [ 80.2666507, 13.0789662 ], [ 80.2661357, 13.0779211 ], [ 80.2658941, 13.077191 ], [ 80.265671, 13.0764371 ], [ 80.265572, 13.0760632 ], [ 80.265495, 13.0758123 ], [ 80.2655034, 13.0756852 ], [ 80.2655335, 13.0752583 ], [ 80.2655837, 13.0748412 ], [ 80.2656841, 13.0743898 ], [ 80.265751, 13.0741356 ], [ 80.265935, 13.0737967 ], [ 80.266042, 13.0736745 ], [ 80.2661792, 13.0735295 ], [ 80.266202, 13.0734276 ], [ 80.2670513, 13.0724805 ], [ 80.268201, 13.0713191 ], [ 80.2685006, 13.0709116 ], [ 80.2687197, 13.0704798 ], [ 80.2688485, 13.0700757 ], [ 80.268883, 13.0697637 ], [ 80.2688937, 13.0695087 ], [ 80.2688638, 13.0692235 ], [ 80.2688518, 13.0691095 ], [ 80.2687331, 13.0685701 ], [ 80.2687257, 13.0684085 ], [ 80.2685756, 13.0681468 ], [ 80.2684084, 13.0679238 ], [ 80.268297, 13.0677752 ], [ 80.267859, 13.0675624 ], [ 80.2670079, 13.0673455 ], [ 80.2665353, 13.0672748 ], [ 80.2656229, 13.0671161 ], [ 80.2648969, 13.0670437 ], [ 80.2641627, 13.066968 ], [ 80.2635571, 13.0668848 ], [ 80.2630575, 13.0666804 ], [ 80.2618327, 13.0661172 ], [ 80.2613664, 13.0658205 ], [ 80.2612571, 13.0656888 ], [ 80.2610697, 13.0654632 ], [ 80.2608456, 13.0650635 ], [ 80.2605528, 13.0642748 ], [ 80.2604702, 13.0639492 ], [ 80.2604456, 13.0638856 ], [ 80.2602825, 13.0634648 ], [ 80.2600463, 13.0630409 ], [ 80.2597859, 13.0626836 ], [ 80.2594104, 13.0622779 ], [ 80.2589562, 13.0619085 ], [ 80.2585323, 13.0615209 ], [ 80.2582174, 13.0613513 ], [ 80.2578844, 13.0612363 ], [ 80.2575816, 13.0611999 ], [ 80.2572303, 13.0612242 ], [ 80.2569821, 13.0613392 ], [ 80.2567035, 13.0615572 ], [ 80.2564128, 13.0618661 ], [ 80.256081, 13.0623449 ], [ 80.2558756, 13.0628824 ], [ 80.2558394, 13.0633474 ], [ 80.2558575, 13.0640962 ], [ 80.2559058, 13.0647847 ], [ 80.2558756, 13.0653826 ], [ 80.2557549, 13.0658415 ], [ 80.2554891, 13.0662643 ], [ 80.2550604, 13.0668923 ], [ 80.2547538, 13.0671914 ], [ 80.2547165, 13.067278 ], [ 80.2546869, 13.067335 ], [ 80.2546658, 13.0673731 ], [ 80.2546481, 13.0673848 ], [ 80.2546244, 13.0673969 ], [ 80.2545867, 13.0674248 ], [ 80.2544927, 13.0674902 ], [ 80.2530614, 13.0690724 ], [ 80.2529794, 13.0691544 ], [ 80.2527564, 13.0693774 ], [ 80.25253, 13.0696039 ], [ 80.2523154, 13.0697811 ], [ 80.2519865, 13.0700327 ], [ 80.2516919, 13.0702219 ], [ 80.2513282, 13.0704554 ], [ 80.2514491, 13.0704186 ], [ 80.2506363, 13.0708763 ], [ 80.2506035, 13.0708963 ], [ 80.2502507, 13.0710671 ], [ 80.2500298, 13.0711741 ], [ 80.2494319, 13.0712888 ], [ 80.2490092, 13.0712888 ], [ 80.2485442, 13.0712344 ], [ 80.2485005, 13.0712204 ], [ 80.2480912, 13.0710895 ], [ 80.2475111, 13.070791 ], [ 80.2470585, 13.0705581 ], [ 80.2466684, 13.0703843 ], [ 80.2450444, 13.0696285 ], [ 80.244823, 13.069562 ], [ 80.244517, 13.0692006 ], [ 80.2444994, 13.069179 ], [ 80.2444863, 13.0691548 ], [ 80.2444704, 13.0691417 ], [ 80.2444422, 13.0691329 ], [ 80.2444116, 13.0691312 ], [ 80.2443965, 13.0691359 ], [ 80.2443801, 13.0691452 ], [ 80.2443637, 13.069145 ], [ 80.2443419, 13.0691333 ], [ 80.2443313, 13.0691251 ], [ 80.2443222, 13.0691208 ], [ 80.2443206, 13.0691013 ], [ 80.2443172, 13.0690779 ], [ 80.2443048, 13.069061 ], [ 80.2442736, 13.0690478 ], [ 80.2441999, 13.0690287 ], [ 80.2441583, 13.0690247 ], [ 80.2441165, 13.0690261 ], [ 80.2440883, 13.0690164 ], [ 80.2440509, 13.0689906 ], [ 80.2440561, 13.0689801 ], [ 80.2440209, 13.0689636 ], [ 80.2440102, 13.0689852 ], [ 80.2438568, 13.068869 ], [ 80.2437873, 13.0688294 ], [ 80.2436882, 13.0687883 ], [ 80.243551, 13.0687333 ], [ 80.2433806, 13.0686468 ], [ 80.2432718, 13.0686022 ], [ 80.2431895, 13.0685641 ], [ 80.2431352, 13.0685322 ], [ 80.2430607, 13.0685003 ], [ 80.2429422, 13.0684686 ], [ 80.2428701, 13.0684526 ], [ 80.2428441, 13.0684505 ], [ 80.2428147, 13.0684519 ], [ 80.2427919, 13.0684531 ], [ 80.2427606, 13.0684489 ], [ 80.2427359, 13.0684452 ], [ 80.2426806, 13.0684309 ], [ 80.2424612, 13.0683484 ], [ 80.2423058, 13.0682805 ], [ 80.2417556, 13.0680593 ], [ 80.2414705, 13.0679423 ], [ 80.2409952, 13.0677473 ], [ 80.2400684, 13.0673632 ], [ 80.2399193, 13.0673004 ], [ 80.239815, 13.0672543 ], [ 80.2397788, 13.0672311 ], [ 80.239741, 13.0672002 ], [ 80.2396239, 13.0671324 ], [ 80.2393718, 13.0669892 ], [ 80.2390351, 13.0668131 ], [ 80.2389433, 13.0667607 ], [ 80.2387051, 13.0666264 ], [ 80.2385117, 13.0665291 ], [ 80.2383444, 13.0664602 ], [ 80.2382158, 13.0664095 ], [ 80.2380708, 13.0663766 ], [ 80.2379612, 13.0663574 ], [ 80.2378508, 13.0663507 ], [ 80.2377035, 13.0663409 ], [ 80.2375084, 13.0663735 ], [ 80.2374196, 13.0663861 ], [ 80.2372583, 13.0663911 ], [ 80.237138, 13.0663961 ], [ 80.237073, 13.0664065 ], [ 80.2370347, 13.0664301 ], [ 80.2370011, 13.0664426 ], [ 80.2368914, 13.0664576 ], [ 80.2368665, 13.0664592 ], [ 80.2367787, 13.0664647 ], [ 80.2365816, 13.0665 ], [ 80.2363421, 13.0665368 ], [ 80.2362643, 13.0665506 ], [ 80.2361734, 13.0665738 ], [ 80.2361466, 13.0665833 ], [ 80.2361182, 13.0665972 ], [ 80.2360993, 13.0666096 ], [ 80.2360758, 13.0666197 ], [ 80.2360425, 13.0666288 ], [ 80.2360064, 13.0666386 ], [ 80.2359752, 13.0666456 ], [ 80.2359473, 13.0666487 ], [ 80.2359311, 13.0666489 ], [ 80.2359052, 13.0666514 ], [ 80.2358724, 13.0666584 ], [ 80.2358509, 13.0666684 ], [ 80.2358311, 13.0666806 ], [ 80.2357659, 13.0667261 ], [ 80.2357015, 13.0667671 ], [ 80.2355353, 13.0668293 ], [ 80.2353927, 13.0669001 ], [ 80.2352912, 13.0669469 ], [ 80.235236, 13.0669808 ], [ 80.2351106, 13.0670664 ], [ 80.2350418, 13.0671099 ], [ 80.2349621, 13.0671602 ], [ 80.2348992, 13.067199 ], [ 80.2348232, 13.0672553 ], [ 80.2347297, 13.0673319 ], [ 80.2346648, 13.0674058 ], [ 80.2346009, 13.067511 ], [ 80.2345071, 13.0676276 ], [ 80.2344447, 13.0676888 ], [ 80.2343539, 13.067748 ], [ 80.2342669, 13.0678069 ], [ 80.2342176, 13.0678401 ], [ 80.234183, 13.067868 ], [ 80.2341498, 13.0678937 ], [ 80.2340896, 13.0679382 ], [ 80.2340376, 13.0679739 ], [ 80.2339804, 13.0680083 ], [ 80.2339198, 13.0680394 ], [ 80.2338602, 13.0680668 ], [ 80.2337792, 13.0681163 ], [ 80.2337418, 13.0681355 ], [ 80.2336903, 13.0681502 ], [ 80.2336495, 13.0681548 ], [ 80.2335962, 13.0681551 ], [ 80.2335572, 13.06815 ], [ 80.2335362, 13.0681426 ], [ 80.2335158, 13.0681407 ], [ 80.2334835, 13.068144 ], [ 80.2334376, 13.0681552 ], [ 80.2334172, 13.0681679 ], [ 80.233403, 13.0681731 ], [ 80.2333761, 13.0681747 ], [ 80.2333506, 13.0681694 ], [ 80.2332533, 13.068174 ], [ 80.2331391, 13.0681805 ], [ 80.2330567, 13.068185 ], [ 80.2329966, 13.0681992 ], [ 80.2328067, 13.0682267 ], [ 80.232702, 13.0682375 ], [ 80.2325645, 13.0682437 ], [ 80.232411, 13.0682653 ], [ 80.2323098, 13.0682784 ], [ 80.2322263, 13.068287 ], [ 80.2321359, 13.0682948 ], [ 80.2320337, 13.0683013 ], [ 80.2319216, 13.0683116 ], [ 80.2318454, 13.0683225 ], [ 80.2317409, 13.0683334 ], [ 80.2316242, 13.0683377 ], [ 80.2314555, 13.0683425 ], [ 80.2313634, 13.0683432 ], [ 80.231276, 13.0683362 ], [ 80.2311513, 13.0683164 ], [ 80.2309687, 13.0682831 ], [ 80.2306741, 13.068218 ], [ 80.2305151, 13.0681804 ], [ 80.2303581, 13.0681488 ], [ 80.2301107, 13.0681074 ], [ 80.2296862, 13.0680167 ], [ 80.2295927, 13.0679967 ], [ 80.2295008, 13.0679841 ], [ 80.2293751, 13.0679758 ], [ 80.229305, 13.0679805 ], [ 80.2292423, 13.0679954 ], [ 80.2291814, 13.0680206 ], [ 80.2290713, 13.0680715 ], [ 80.2290026, 13.0681025 ], [ 80.2289071, 13.0681358 ], [ 80.2288341, 13.0681494 ], [ 80.2287719, 13.0681614 ], [ 80.2287143, 13.0681828 ], [ 80.2286771, 13.06821 ], [ 80.2286425, 13.0682466 ], [ 80.2285922, 13.0682882 ], [ 80.2285263, 13.0683439 ], [ 80.2285048, 13.0683907 ], [ 80.2284914, 13.0684421 ], [ 80.2284968, 13.0685129 ], [ 80.228522, 13.0687044 ], [ 80.2285507, 13.0688609 ], [ 80.2285748, 13.0689555 ], [ 80.2286433, 13.0690884 ], [ 80.2287294, 13.0692421 ], [ 80.2288079, 13.0693784 ], [ 80.2288804, 13.0694698 ], [ 80.2289531, 13.0695355 ], [ 80.2290281, 13.0695968 ], [ 80.2291537, 13.0696962 ], [ 80.2292235, 13.0697717 ], [ 80.229264, 13.0698327 ], [ 80.22933, 13.0699676 ], [ 80.2293942, 13.0700957 ], [ 80.2294313, 13.0701437 ], [ 80.229479, 13.0701747 ], [ 80.2295077, 13.0702252 ], [ 80.2295235, 13.0702838 ], [ 80.22956, 13.0703548 ], [ 80.2295936, 13.0704062 ], [ 80.2296348, 13.0704391 ], [ 80.2296563, 13.0704687 ], [ 80.229668, 13.0705181 ], [ 80.2296695, 13.0705613 ], [ 80.2296716, 13.0706006 ], [ 80.2296986, 13.070654 ], [ 80.2297176, 13.0707525 ], [ 80.2297195, 13.0707928 ], [ 80.2297122, 13.0708159 ], [ 80.2296907, 13.070845 ], [ 80.2296718, 13.0708826 ], [ 80.2296783, 13.0709337 ], [ 80.2297162, 13.0709875 ], [ 80.22975, 13.0710189 ], [ 80.2297556, 13.0710407 ], [ 80.2297566, 13.0711348 ], [ 80.2297525, 13.0712697 ], [ 80.2297162, 13.071681 ], [ 80.2297131, 13.0717057 ], [ 80.229708, 13.07173 ], [ 80.2297007, 13.0717446 ], [ 80.2296867, 13.0717635 ], [ 80.2296739, 13.071776 ], [ 80.2296604, 13.0717869 ], [ 80.2296211, 13.0718117 ], [ 80.2295378, 13.0718772 ], [ 80.2295254, 13.0718931 ], [ 80.2295185, 13.0719101 ], [ 80.2295164, 13.07193 ], [ 80.2295186, 13.0719533 ], [ 80.2295223, 13.0719732 ], [ 80.2295193, 13.0719992 ], [ 80.2295148, 13.072011 ], [ 80.2295093, 13.0720299 ], [ 80.2295059, 13.0720535 ], [ 80.2295038, 13.0720716 ], [ 80.2294973, 13.0720892 ], [ 80.2294875, 13.0721093 ], [ 80.2294674, 13.0721412 ], [ 80.2294423, 13.0721838 ], [ 80.2294093, 13.0722435 ], [ 80.2293858, 13.0722821 ], [ 80.2293562, 13.0723174 ], [ 80.2293268, 13.0723448 ], [ 80.2293035, 13.0723607 ], [ 80.2292688, 13.0723766 ], [ 80.2292338, 13.0723902 ], [ 80.2291969, 13.0724007 ], [ 80.2291536, 13.0724086 ], [ 80.2291159, 13.0724084 ], [ 80.2290746, 13.0724024 ], [ 80.2290385, 13.0723967 ], [ 80.2289751, 13.0724005 ], [ 80.2289068, 13.0724159 ], [ 80.2288382, 13.0724343 ], [ 80.2287755, 13.0724427 ], [ 80.2287099, 13.0724503 ], [ 80.228653, 13.072454 ], [ 80.22859, 13.0724521 ], [ 80.2285076, 13.0724507 ], [ 80.2283921, 13.0724496 ], [ 80.2283568, 13.0724492 ], [ 80.2282845, 13.0724397 ], [ 80.2281561, 13.0724157 ], [ 80.2278768, 13.0722408 ], [ 80.2274381, 13.0722212 ], [ 80.2264274, 13.0720096 ], [ 80.2254951, 13.0720057 ], [ 80.225072, 13.0718608 ], [ 80.2248527, 13.071802 ], [ 80.2245079, 13.071755 ], [ 80.2241554, 13.0718099 ], [ 80.2237989, 13.0719078 ], [ 80.2233523, 13.0720997 ], [ 80.2230859, 13.0722956 ], [ 80.2227921, 13.0726286 ], [ 80.2225923, 13.0730007 ], [ 80.2224317, 13.0734121 ], [ 80.2224249, 13.0739427 ], [ 80.2222347, 13.0745624 ], [ 80.222329, 13.0751312 ], [ 80.2221917, 13.0761178 ], [ 80.2220286, 13.0766194 ], [ 80.2215909, 13.0773384 ], [ 80.2209632, 13.0781033 ], [ 80.2206872, 13.0785423 ], [ 80.2205609, 13.078743 ], [ 80.2202691, 13.0792446 ], [ 80.219531, 13.0799469 ], [ 80.2188475, 13.080368 ], [ 80.2187199, 13.0804887 ], [ 80.2185354, 13.0806333 ], [ 80.2183184, 13.0807562 ], [ 80.2181975, 13.0808133 ], [ 80.2181383, 13.0808336 ], [ 80.2180814, 13.0808443 ], [ 80.2179713, 13.0808534 ], [ 80.2176548, 13.0808846 ], [ 80.2174582, 13.080891 ], [ 80.2163638, 13.0805488 ], [ 80.2154454, 13.0799134 ], [ 80.2151879, 13.0794118 ], [ 80.2151536, 13.0785423 ], [ 80.2150935, 13.0772559 ], [ 80.2150102, 13.0769069 ], [ 80.213909, 13.0769467 ], [ 80.213394, 13.0772252 ], [ 80.2125958, 13.0779487 ], [ 80.211789, 13.0782999 ], [ 80.2109651, 13.0786259 ], [ 80.2094716, 13.0787179 ], [ 80.2062529, 13.0787513 ], [ 80.2059525, 13.0786677 ], [ 80.2058495, 13.0783751 ], [ 80.2056006, 13.0782246 ], [ 80.2049912, 13.0780741 ], [ 80.2035836, 13.0779069 ], [ 80.2023477, 13.0779069 ], [ 80.2009658, 13.0779153 ], [ 80.1997126, 13.0780741 ], [ 80.1986107, 13.0782521 ], [ 80.1981561, 13.0783979 ], [ 80.1971438, 13.0785009 ], [ 80.196286, 13.0786982 ], [ 80.1954281, 13.0788869 ], [ 80.1946389, 13.0790413 ], [ 80.193884, 13.0791271 ], [ 80.1933264, 13.0789641 ], [ 80.1929992, 13.0786422 ], [ 80.1916385, 13.0772604 ], [ 80.191428, 13.0769308 ], [ 80.190888, 13.0755981 ], [ 80.1898639, 13.0744478 ], [ 80.188924, 13.0739007 ], [ 80.1879982, 13.073515 ], [ 80.1874182, 13.073149 ], [ 80.1865539, 13.0727776 ], [ 80.1854619, 13.0726712 ], [ 80.1844761, 13.0725281 ], [ 80.1836573, 13.0725281 ], [ 80.1827144, 13.0725443 ], [ 80.1822402, 13.0725019 ], [ 80.181927, 13.072491 ], [ 80.1813168, 13.0725147 ], [ 80.1809679, 13.0723851 ], [ 80.1795987, 13.0721109 ], [ 80.1787015, 13.0720819 ], [ 80.1781719, 13.0720784 ], [ 80.177048, 13.0721034 ], [ 80.1777963, 13.070926 ], [ 80.1790087, 13.0711735 ], [ 80.1799395, 13.0712133 ], [ 80.1806846, 13.0712153 ], [ 80.1807945, 13.0711639 ], [ 80.1819303, 13.0715623 ], [ 80.1833439, 13.0716501 ], [ 80.1837097, 13.0715854 ], [ 80.1843034, 13.0716526 ], [ 80.1844227, 13.0715359 ], [ 80.185447, 13.0717005 ], [ 80.1858201, 13.0720907 ], [ 80.1862298, 13.0721227 ], [ 80.1870862, 13.0723433 ], [ 80.1882251, 13.0728522 ], [ 80.1888922, 13.0732866 ], [ 80.1891121, 13.0734453 ], [ 80.1899243, 13.073893 ], [ 80.1901952, 13.0742556 ], [ 80.1908338, 13.0747938 ], [ 80.1913274, 13.0751241 ], [ 80.1915184, 13.0757132 ], [ 80.1920105, 13.0769789 ], [ 80.1922759, 13.0772657 ], [ 80.1929723, 13.0780183 ], [ 80.1938807, 13.0783911 ], [ 80.1940759, 13.0785392 ], [ 80.1944934, 13.0785527 ], [ 80.1948503, 13.0784584 ], [ 80.1954765, 13.0784315 ], [ 80.1965067, 13.078115 ], [ 80.1967152, 13.07804 ], [ 80.1974901, 13.0780257 ], [ 80.19776, 13.0780208 ], [ 80.1978447, 13.0780192 ], [ 80.1981866, 13.0778973 ], [ 80.1982419, 13.0776602 ], [ 80.1983877, 13.0775229 ], [ 80.1987394, 13.077483 ], [ 80.1991633, 13.0773886 ], [ 80.1993264, 13.0770709 ], [ 80.1998586, 13.0770207 ], [ 80.2002362, 13.0768201 ], [ 80.2006225, 13.0767699 ], [ 80.2010173, 13.0770124 ], [ 80.2013606, 13.0770876 ], [ 80.2022962, 13.0771796 ], [ 80.2031677, 13.0772407 ], [ 80.2032489, 13.0772464 ], [ 80.2047166, 13.0773886 ], [ 80.2058206, 13.0777178 ], [ 80.2062442, 13.0778973 ], [ 80.206523, 13.0779931 ], [ 80.2065582, 13.0781221 ], [ 80.2066973, 13.0781874 ], [ 80.2068748, 13.0783023 ], [ 80.2073646, 13.0783721 ], [ 80.2074402, 13.0783769 ], [ 80.2074903, 13.0783895 ], [ 80.2075324, 13.078406 ], [ 80.2075834, 13.0784155 ], [ 80.207967, 13.0784096 ], [ 80.2088229, 13.0783878 ], [ 80.2092517, 13.0784003 ], [ 80.2097399, 13.0783794 ], [ 80.2097852, 13.0783734 ], [ 80.2099537, 13.0783513 ], [ 80.2101925, 13.0782873 ], [ 80.2105385, 13.0782476 ], [ 80.2107826, 13.0781478 ], [ 80.2115777, 13.0778798 ], [ 80.2120637, 13.0777146 ], [ 80.2127847, 13.0772214 ], [ 80.213099, 13.0769243 ], [ 80.2133597, 13.0766779 ], [ 80.2140206, 13.076377 ], [ 80.214527, 13.0762097 ], [ 80.2151562, 13.0766106 ], [ 80.2157458, 13.0770374 ], [ 80.2158746, 13.0774304 ], [ 80.215866, 13.0780658 ], [ 80.2159003, 13.0789018 ], [ 80.2161831, 13.0797588 ], [ 80.2166642, 13.0801057 ], [ 80.2170333, 13.080298 ], [ 80.2174576, 13.0805655 ], [ 80.2175867, 13.0805867 ], [ 80.2176918, 13.0805936 ], [ 80.2179161, 13.0805786 ], [ 80.21801, 13.080564 ], [ 80.2181193, 13.0805156 ], [ 80.218236, 13.0804511 ], [ 80.2183398, 13.0803772 ], [ 80.2184076, 13.0803369 ], [ 80.2184963, 13.080286 ], [ 80.2185654, 13.0802413 ], [ 80.2186205, 13.0802016 ], [ 80.218676, 13.0801526 ], [ 80.2190331, 13.0796375 ], [ 80.2197884, 13.0789353 ], [ 80.2202004, 13.0781577 ], [ 80.2209214, 13.0772297 ], [ 80.2215566, 13.076586 ], [ 80.2217797, 13.0759338 ], [ 80.2219954, 13.0747423 ], [ 80.2219915, 13.0744641 ], [ 80.221931, 13.0740593 ], [ 80.2219217, 13.0740254 ], [ 80.2219226, 13.0739821 ], [ 80.2220254, 13.0730116 ], [ 80.2221914, 13.072779 ], [ 80.2222351, 13.0726916 ], [ 80.2222642, 13.0726596 ], [ 80.2226276, 13.0722604 ], [ 80.2231173, 13.0719078 ], [ 80.2233461, 13.0718209 ], [ 80.2235403, 13.0717472 ], [ 80.224077, 13.0716218 ], [ 80.2244178, 13.0716062 ], [ 80.2247155, 13.0715866 ], [ 80.225119, 13.0716571 ], [ 80.2253462, 13.0717276 ], [ 80.2266311, 13.0718451 ], [ 80.227348, 13.0718843 ], [ 80.2280688, 13.0720723 ], [ 80.2281964, 13.072134 ], [ 80.2283, 13.0721343 ], [ 80.2284311, 13.0721444 ], [ 80.2286331, 13.0721569 ], [ 80.2286874, 13.0721615 ], [ 80.2287466, 13.0721542 ], [ 80.2288974, 13.0721268 ], [ 80.2289456, 13.0721118 ], [ 80.2289834, 13.0720932 ], [ 80.229044, 13.0720522 ], [ 80.2290901, 13.0720322 ], [ 80.2291368, 13.0720223 ], [ 80.2291714, 13.0720168 ], [ 80.22919, 13.0720125 ], [ 80.2292035, 13.0720046 ], [ 80.22923, 13.0719836 ], [ 80.2292467, 13.0719677 ], [ 80.2292607, 13.0719487 ], [ 80.2292931, 13.0718911 ], [ 80.2293196, 13.0718267 ], [ 80.2293307, 13.0717901 ], [ 80.2293406, 13.0717526 ], [ 80.2293479, 13.0717107 ], [ 80.2293491, 13.0716712 ], [ 80.2293508, 13.0716207 ], [ 80.2293603, 13.0715675 ], [ 80.2293742, 13.071522 ], [ 80.2293881, 13.071465 ], [ 80.2293981, 13.0713974 ], [ 80.2294055, 13.0712676 ], [ 80.2294084, 13.0711475 ], [ 80.2294029, 13.0710804 ], [ 80.2293887, 13.0709751 ], [ 80.229375, 13.0709203 ], [ 80.2293393, 13.0708265 ], [ 80.2293125, 13.070761 ], [ 80.2292916, 13.0707027 ], [ 80.2292836, 13.0706704 ], [ 80.2292782, 13.0706401 ], [ 80.2292616, 13.0705975 ], [ 80.2292148, 13.0705043 ], [ 80.2291484, 13.0703613 ], [ 80.2290675, 13.0702042 ], [ 80.2290139, 13.0700884 ], [ 80.2289887, 13.0700513 ], [ 80.228944, 13.0699896 ], [ 80.2288973, 13.0699409 ], [ 80.2288213, 13.0698536 ], [ 80.2287375, 13.0697638 ], [ 80.2286607, 13.0696776 ], [ 80.2286145, 13.0696215 ], [ 80.2285457, 13.0695432 ], [ 80.2285152, 13.0694858 ], [ 80.2285087, 13.0694463 ], [ 80.2285049, 13.0694253 ], [ 80.2284965, 13.069409 ], [ 80.2284743, 13.0693982 ], [ 80.2284461, 13.0693857 ], [ 80.2284325, 13.0693673 ], [ 80.2284329, 13.0693482 ], [ 80.2284403, 13.0693172 ], [ 80.2284247, 13.0692679 ], [ 80.2284149, 13.0692542 ], [ 80.2283881, 13.0692432 ], [ 80.2283696, 13.0692291 ], [ 80.228349, 13.0692027 ], [ 80.2282986, 13.0691036 ], [ 80.2282386, 13.06897 ], [ 80.2282193, 13.0689228 ], [ 80.2281851, 13.0688497 ], [ 80.2281563, 13.0688016 ], [ 80.2281252, 13.068725 ], [ 80.2281022, 13.0686215 ], [ 80.2280836, 13.0685166 ], [ 80.228084, 13.0684254 ], [ 80.2281229, 13.0683339 ], [ 80.2281799, 13.0682115 ], [ 80.2282294, 13.0681432 ], [ 80.2282522, 13.0681132 ], [ 80.2282786, 13.0680878 ], [ 80.2283151, 13.0680625 ], [ 80.2283497, 13.0680414 ], [ 80.2284138, 13.0680158 ], [ 80.2284682, 13.0679942 ], [ 80.2285323, 13.0679849 ], [ 80.2285721, 13.06797 ], [ 80.2285919, 13.0679672 ], [ 80.2286111, 13.0679801 ], [ 80.2286394, 13.0679867 ], [ 80.2286594, 13.0679838 ], [ 80.2287089, 13.0679484 ], [ 80.2287677, 13.0679069 ], [ 80.228844, 13.0678656 ], [ 80.228928, 13.0678317 ], [ 80.2289908, 13.0678108 ], [ 80.2290183, 13.0678019 ], [ 80.2290364, 13.0677908 ], [ 80.2290424, 13.0677715 ], [ 80.2290426, 13.0677352 ], [ 80.2290418, 13.0676952 ], [ 80.2290483, 13.0676806 ], [ 80.2290619, 13.0676627 ], [ 80.2290966, 13.0676519 ], [ 80.2292068, 13.0676413 ], [ 80.2293139, 13.0676391 ], [ 80.2293736, 13.0676469 ], [ 80.2296072, 13.0676883 ], [ 80.2297026, 13.0677152 ], [ 80.2297534, 13.0677456 ], [ 80.229789, 13.0677591 ], [ 80.2298399, 13.0677621 ], [ 80.2299659, 13.0677753 ], [ 80.2303471, 13.0678276 ], [ 80.2305082, 13.0678536 ], [ 80.2306005, 13.0678803 ], [ 80.2306642, 13.067912 ], [ 80.2307647, 13.0679559 ], [ 80.2308437, 13.0679774 ], [ 80.2310098, 13.0680068 ], [ 80.2311732, 13.0680322 ], [ 80.2313413, 13.0680555 ], [ 80.2314335, 13.0680652 ], [ 80.2315373, 13.0680686 ], [ 80.2315737, 13.0680649 ], [ 80.2316143, 13.0680561 ], [ 80.2316738, 13.0680336 ], [ 80.2317157, 13.0680113 ], [ 80.2317637, 13.0679827 ], [ 80.2317896, 13.0679748 ], [ 80.231826, 13.0679669 ], [ 80.2319442, 13.067954 ], [ 80.2319656, 13.0679542 ], [ 80.2319853, 13.0679557 ], [ 80.2320072, 13.0679589 ], [ 80.2320372, 13.0679665 ], [ 80.2320672, 13.0679741 ], [ 80.2320999, 13.0679819 ], [ 80.2321388, 13.0679875 ], [ 80.2321663, 13.0679894 ], [ 80.2322483, 13.0679862 ], [ 80.2322894, 13.067982 ], [ 80.2323157, 13.0679793 ], [ 80.2323407, 13.0679773 ], [ 80.2323769, 13.0679749 ], [ 80.2323937, 13.0679744 ], [ 80.2324022, 13.0679763 ], [ 80.2324112, 13.0679812 ], [ 80.2324181, 13.0679844 ], [ 80.2324267, 13.0679868 ], [ 80.2324354, 13.0679885 ], [ 80.2324452, 13.0679884 ], [ 80.2325689, 13.0679739 ], [ 80.2327866, 13.0679458 ], [ 80.2329024, 13.0679301 ], [ 80.2329305, 13.0679237 ], [ 80.2329638, 13.0679114 ], [ 80.2330095, 13.0678874 ], [ 80.2330653, 13.0678678 ], [ 80.2330971, 13.0678609 ], [ 80.2331518, 13.0678561 ], [ 80.2332023, 13.0678556 ], [ 80.2332507, 13.0678583 ], [ 80.2333484, 13.0678589 ], [ 80.2334327, 13.0678535 ], [ 80.233508, 13.0678454 ], [ 80.2335927, 13.0678258 ], [ 80.233714, 13.0678043 ], [ 80.2338353, 13.0677804 ], [ 80.2339125, 13.0677574 ], [ 80.2339675, 13.067733 ], [ 80.2340505, 13.0676893 ], [ 80.2341679, 13.0676074 ], [ 80.2342553, 13.06754 ], [ 80.2343668, 13.0674234 ], [ 80.2344896, 13.0672823 ], [ 80.23454, 13.0672308 ], [ 80.2345947, 13.0671783 ], [ 80.2346114, 13.0671611 ], [ 80.2346218, 13.0671459 ], [ 80.2346304, 13.0671279 ], [ 80.2346343, 13.0671081 ], [ 80.2346395, 13.0670723 ], [ 80.2346452, 13.0670461 ], [ 80.2346544, 13.0670258 ], [ 80.23467, 13.0670036 ], [ 80.2346914, 13.0669802 ], [ 80.2347218, 13.0669504 ], [ 80.2348069, 13.0668886 ], [ 80.2348949, 13.0668322 ], [ 80.2349591, 13.0667945 ], [ 80.2350274, 13.0667585 ], [ 80.2351195, 13.0666983 ], [ 80.235173, 13.0666639 ], [ 80.2352326, 13.0666278 ], [ 80.2352624, 13.066611 ], [ 80.2352889, 13.0666012 ], [ 80.2353143, 13.0665961 ], [ 80.2353732, 13.0665803 ], [ 80.2354093, 13.0665676 ], [ 80.2354469, 13.0665502 ], [ 80.2355242, 13.0665189 ], [ 80.2356872, 13.0664558 ], [ 80.2358511, 13.066406 ], [ 80.2361037, 13.0663338 ], [ 80.2364707, 13.0662291 ], [ 80.2366317, 13.0661925 ], [ 80.2368175, 13.0661583 ], [ 80.2370006, 13.0661335 ], [ 80.2372632, 13.0661047 ], [ 80.2374822, 13.0660847 ], [ 80.2376094, 13.06608 ], [ 80.2376898, 13.0660845 ], [ 80.2377224, 13.0660911 ], [ 80.2377659, 13.0661051 ], [ 80.2377949, 13.0661153 ], [ 80.2378058, 13.0661141 ], [ 80.2378191, 13.0661078 ], [ 80.2378339, 13.0661015 ], [ 80.237856, 13.0661017 ], [ 80.2379042, 13.0661166 ], [ 80.2379481, 13.0661304 ], [ 80.2380408, 13.0661461 ], [ 80.2381534, 13.0661579 ], [ 80.2382414, 13.066171 ], [ 80.2383404, 13.066195 ], [ 80.2385026, 13.0662498 ], [ 80.2388139, 13.0663894 ], [ 80.2390441, 13.066521 ], [ 80.2392964, 13.0666734 ], [ 80.239549, 13.0667937 ], [ 80.2399741, 13.0669939 ], [ 80.2401557, 13.0670823 ], [ 80.2403081, 13.0671442 ], [ 80.2404549, 13.067196 ], [ 80.240646, 13.0672642 ], [ 80.2411207, 13.0674491 ], [ 80.24133, 13.067512 ], [ 80.2414578, 13.0675627 ], [ 80.2415895, 13.067612 ], [ 80.2416161, 13.067628 ], [ 80.2416511, 13.0676544 ], [ 80.2416879, 13.0676883 ], [ 80.241723, 13.0677101 ], [ 80.2417555, 13.0677277 ], [ 80.2417918, 13.0677385 ], [ 80.2419216, 13.0677729 ], [ 80.2420376, 13.0678133 ], [ 80.2421353, 13.0678504 ], [ 80.2422262, 13.0678799 ], [ 80.2423587, 13.0679071 ], [ 80.2424996, 13.0679374 ], [ 80.2426453, 13.0679817 ], [ 80.2428439, 13.068059 ], [ 80.2429589, 13.0681129 ], [ 80.2430785, 13.0681743 ], [ 80.2431639, 13.0682045 ], [ 80.2432496, 13.0682379 ], [ 80.2433994, 13.0683044 ], [ 80.243536, 13.0683368 ], [ 80.2436885, 13.0683824 ], [ 80.2437791, 13.0684313 ], [ 80.2439005, 13.0685103 ], [ 80.2440704, 13.0685894 ], [ 80.2443078, 13.0687092 ], [ 80.2445413, 13.0688022 ], [ 80.2447701, 13.0689216 ], [ 80.2448992, 13.0690007 ], [ 80.24521, 13.0691682 ], [ 80.2459293, 13.0695667 ], [ 80.2463327, 13.0697899 ], [ 80.2465391, 13.0699025 ], [ 80.2469289, 13.0701233 ], [ 80.2471917, 13.0702605 ], [ 80.247321, 13.0701442 ], [ 80.2476895, 13.0704219 ], [ 80.2483978, 13.0706821 ], [ 80.2487519, 13.0707399 ], [ 80.2493301, 13.0707399 ], [ 80.249836, 13.0706171 ], [ 80.2502511, 13.0704217 ], [ 80.2523275, 13.0691009 ], [ 80.2529061, 13.0685917 ], [ 80.2531996, 13.0682142 ], [ 80.2540745, 13.0673285 ], [ 80.2541777, 13.0671961 ], [ 80.2542323, 13.0671181 ], [ 80.2542427, 13.0670871 ], [ 80.2542457, 13.067041 ], [ 80.2542471, 13.0670139 ], [ 80.2542598, 13.0669955 ], [ 80.2542956, 13.066959 ], [ 80.2543613, 13.066892 ], [ 80.254395, 13.0668576 ], [ 80.2544443, 13.0668115 ], [ 80.2544861, 13.0667797 ], [ 80.2549443, 13.0661708 ], [ 80.2552959, 13.0658113 ], [ 80.2554589, 13.0653765 ], [ 80.2555073, 13.0649598 ], [ 80.2554831, 13.0640902 ], [ 80.2555193, 13.0632085 ], [ 80.2556582, 13.0626166 ], [ 80.2559723, 13.0619282 ], [ 80.2562982, 13.0613922 ], [ 80.2565682, 13.0611705 ], [ 80.2569641, 13.061004 ], [ 80.257378, 13.0609115 ], [ 80.2578021, 13.0609296 ], [ 80.2583017, 13.0610219 ], [ 80.2587967, 13.061277 ], [ 80.25926, 13.0615857 ], [ 80.2598134, 13.0620595 ], [ 80.2603437, 13.0626672 ], [ 80.2605999, 13.0630902 ], [ 80.2607548, 13.0633286 ], [ 80.2607886, 13.0635408 ], [ 80.2608282, 13.0636454 ], [ 80.2608596, 13.063688 ], [ 80.2608921, 13.0637281 ], [ 80.2609047, 13.0637516 ], [ 80.2609064, 13.0637663 ], [ 80.260904, 13.0637817 ], [ 80.2608905, 13.0638233 ], [ 80.2608835, 13.0638496 ], [ 80.2608762, 13.063868 ], [ 80.2608736, 13.0638864 ], [ 80.2608737, 13.0640548 ], [ 80.2608758, 13.0641156 ], [ 80.2608815, 13.0641477 ], [ 80.2608958, 13.0641838 ], [ 80.2609673, 13.0644136 ], [ 80.2610267, 13.0645661 ], [ 80.2610918, 13.0647314 ], [ 80.2611925, 13.0649851 ], [ 80.2613028, 13.0652086 ], [ 80.2613705, 13.0653157 ], [ 80.261452, 13.0654152 ], [ 80.2615395, 13.0655176 ], [ 80.2616334, 13.0656085 ], [ 80.2618645, 13.0657807 ], [ 80.2620475, 13.0659002 ], [ 80.2621113, 13.0659363 ], [ 80.2621775, 13.0659852 ], [ 80.2622217, 13.06603 ], [ 80.2622463, 13.0660485 ], [ 80.2623251, 13.0660833 ], [ 80.2624118, 13.0661244 ], [ 80.2625151, 13.0661741 ], [ 80.2627602, 13.0662655 ], [ 80.2628485, 13.0662859 ], [ 80.2628944, 13.0663007 ], [ 80.2629159, 13.066316 ], [ 80.2629217, 13.0663567 ], [ 80.2629471, 13.0663863 ], [ 80.2629796, 13.0664033 ], [ 80.2630148, 13.0664016 ], [ 80.2630422, 13.0663922 ], [ 80.2630806, 13.0663889 ], [ 80.26312, 13.0663948 ], [ 80.2631613, 13.0663976 ], [ 80.2631839, 13.0664052 ], [ 80.263225, 13.0664214 ], [ 80.263283, 13.0664386 ], [ 80.2633333, 13.0664435 ], [ 80.2634097, 13.0664549 ], [ 80.2635424, 13.0664846 ], [ 80.2636196, 13.0665111 ], [ 80.263652, 13.0665289 ], [ 80.2637299, 13.0665842 ], [ 80.2641687, 13.0665757 ], [ 80.265615, 13.0666831 ], [ 80.2665203, 13.0668133 ], [ 80.2673238, 13.0669604 ], [ 80.2680198, 13.0671301 ], [ 80.2686083, 13.0673734 ], [ 80.2688629, 13.0676224 ], [ 80.2691256, 13.0681757 ], [ 80.2691801, 13.0682617 ], [ 80.2692661, 13.0683546 ] ] ] } },
{ "type": "Feature", "properties": { "natural": "water", "water": "pond", "name": null, "id": "way/217802640" }, "geometry": { "type": "Polygon", "coordinates": [ [ [ 80.1980373, 13.0736185 ], [ 80.1981001, 13.0739512 ], [ 80.1977232, 13.0739923 ], [ 80.1976693, 13.0736516 ], [ 80.1980373, 13.0736185 ] ] ] } },
{ "type": "Feature", "properties": { "natural": "water", "water": "wastewater", "name": null, "id": "way/1172624836" }, "geometry": { "type": "Polygon", "coordinates": [ [ [ 80.2012584, 13.0652718 ], [ 80.2013073, 13.0653325 ], [ 80.2013361, 13.0654043 ], [ 80.2013425, 13.0654812 ], [ 80.2013259, 13.0655566 ], [ 80.2012877, 13.0656241 ], [ 80.2012312, 13.0656781 ], [ 80.2011611, 13.065714 ], [ 80.2010834, 13.0657287 ], [ 80.2010046, 13.0657209 ], [ 80.2009314, 13.0656914 ], [ 80.2008622, 13.0656338 ], [ 80.2008164, 13.0655572 ], [ 80.200799, 13.0654701 ], [ 80.2008122, 13.0653823 ], [ 80.2008277, 13.0653444 ], [ 80.2008543, 13.0653037 ], [ 80.2008846, 13.0652701 ], [ 80.2009207, 13.065243 ], [ 80.2009576, 13.065223 ], [ 80.201004, 13.0652071 ], [ 80.2010947, 13.0651999 ], [ 80.2011828, 13.0652223 ], [ 80.2012584, 13.0652718 ] ] ] } },
{ "type": "Feature", "properties": { "natural": "water", "water": "wastewater", "name": null, "id": "way/1172624837" }, "geometry": { "type": "Polygon", "coordinates": [ [ [ 80.2016619, 13.0648607 ], [ 80.2016991, 13.0648528 ], [ 80.201737, 13.064857 ], [ 80.2017715, 13.0648728 ], [ 80.2017996, 13.0648994 ], [ 80.2018171, 13.0649335 ], [ 80.2018222, 13.0649713 ], [ 80.2018142, 13.0650086 ], [ 80.201794, 13.0650413 ], [ 80.201764, 13.0650657 ], [ 80.2017273, 13.0650791 ], [ 80.2016882, 13.06508 ], [ 80.2016509, 13.0650683 ], [ 80.2016204, 13.065046 ], [ 80.2015988, 13.0650154 ], [ 80.2015885, 13.0649797 ], [ 80.2015904, 13.0649426 ], [ 80.2016045, 13.0649081 ], [ 80.2016292, 13.0648798 ], [ 80.2016619, 13.0648607 ] ] ] } },
{ "type": "Feature", "properties": { "natural": "water", "water": "wastewater", "name": null, "id": "way/1172624838" }, "geometry": { "type": "Polygon", "coordinates": [ [ [ 80.2013801, 13.0650087 ], [ 80.2014173, 13.0650009 ], [ 80.2014552, 13.0650051 ], [ 80.2014897, 13.0650209 ], [ 80.2015178, 13.0650474 ], [ 80.2015353, 13.0650815 ], [ 80.2015404, 13.0651193 ], [ 80.2015324, 13.0651566 ], [ 80.2015122, 13.0651893 ], [ 80.2014822, 13.0652137 ], [ 80.2014455, 13.0652271 ], [ 80.2014064, 13.065228 ], [ 80.2013691, 13.0652163 ], [ 80.2013386, 13.0651941 ], [ 80.201317, 13.0651635 ], [ 80.2013067, 13.0651277 ], [ 80.2013086, 13.0650907 ], [ 80.2013227, 13.0650561 ], [ 80.2013474, 13.0650278 ], [ 80.2013801, 13.0650087 ] ] ] } },
{ "type": "Feature", "properties": { "natural": "water", "water": "wastewater", "name": null, "id": "way/1172624839" }, "geometry": { "type": "Polygon", "coordinates": [ [ [ 80.2015821, 13.0653498 ], [ 80.202029, 13.0651547 ], [ 80.2020036, 13.0651201 ], [ 80.2020281, 13.0651004 ], [ 80.202083, 13.0651547 ], [ 80.2020417, 13.0651835 ], [ 80.2019436, 13.065228 ], [ 80.202034, 13.0654411 ], [ 80.201686, 13.0655876 ], [ 80.2015821, 13.0653498 ] ] ] } },
{ "type": "Feature", "properties": { "natural": "water", "water": "wastewater", "name": null, "id": "way/1172624850" }, "geometry": { "type": "Polygon", "coordinates": [ [ [ 80.2015133, 13.0640215 ], [ 80.2015588, 13.0640653 ], [ 80.2015866, 13.0641199 ], [ 80.2015949, 13.0641803 ], [ 80.2015829, 13.06424 ], [ 80.2015517, 13.0642929 ], [ 80.2015049, 13.0643332 ], [ 80.2014472, 13.0643567 ], [ 80.2013848, 13.0643609 ], [ 80.2013243, 13.0643453 ], [ 80.2012722, 13.0643116 ], [ 80.201234, 13.0642634 ], [ 80.2012134, 13.0642044 ], [ 80.2012139, 13.0641421 ], [ 80.2012353, 13.0640834 ], [ 80.2012754, 13.0640348 ], [ 80.2013296, 13.0640018 ], [ 80.201392, 13.0639879 ], [ 80.2014555, 13.0639947 ], [ 80.2015133, 13.0640215 ] ] ] } },
{ "type": "Feature", "properties": { "natural": "water", "water": "wastewater", "name": null, "id": "way/1172624855" }, "geometry": { "type": "Polygon", "coordinates": [ [ [ 80.2012883, 13.0647478 ], [ 80.2013012, 13.0647988 ], [ 80.2012966, 13.064848 ], [ 80.2012764, 13.0648933 ], [ 80.2012425, 13.0649301 ], [ 80.2011984, 13.0649546 ], [ 80.2011487, 13.0649642 ], [ 80.2010983, 13.0649581 ], [ 80.2010525, 13.0649369 ], [ 80.201016, 13.0649026 ], [ 80.2009924, 13.0648589 ], [ 80.2009841, 13.0648101 ], [ 80.2009932, 13.0647583 ], [ 80.2010195, 13.0647125 ], [ 80.20106, 13.0646778 ], [ 80.2011102, 13.0646584 ], [ 80.201164, 13.0646565 ], [ 80.2012155, 13.0646723 ], [ 80.2012586, 13.0647039 ], [ 80.2012883, 13.0647478 ] ] ] } },
{ "type": "Feature", "properties": { "natural": "water", "water": "wastewater", "name": null, "id": "way/1172624856" }, "geometry": { "type": "Polygon", "coordinates": [ [ [ 80.2011294, 13.0644197 ], [ 80.2011423, 13.0644707 ], [ 80.2011378, 13.0645199 ], [ 80.2011175, 13.0645652 ], [ 80.2010836, 13.064602 ], [ 80.2010395, 13.0646265 ], [ 80.2009898, 13.0646361 ], [ 80.2009394, 13.06463 ], [ 80.2008937, 13.0646088 ], [ 80.2008571, 13.0645745 ], [ 80.2008335, 13.0645308 ], [ 80.2008252, 13.064482 ], [ 80.2008343, 13.0644302 ], [ 80.2008606, 13.0643844 ], [ 80.2009012, 13.0643497 ], [ 80.2009513, 13.0643303 ], [ 80.2010052, 13.0643284 ], [ 80.2010566, 13.0643442 ], [ 80.2010997, 13.0643758 ], [ 80.2011294, 13.0644197 ] ] ] } },
{ "type": "Feature", "properties": { "natural": "water", "water": "wastewater", "name": null, "id": "way/1172624857" }, "geometry": { "type": "Polygon", "coordinates": [ [ [ 80.2007685, 13.0646073 ], [ 80.2007814, 13.0646583 ], [ 80.2007769, 13.0647076 ], [ 80.2007567, 13.0647529 ], [ 80.2007228, 13.0647897 ], [ 80.2006787, 13.0648141 ], [ 80.2006289, 13.0648238 ], [ 80.2005786, 13.0648177 ], [ 80.2005328, 13.0647965 ], [ 80.2004962, 13.0647622 ], [ 80.2004726, 13.0647185 ], [ 80.2004644, 13.0646697 ], [ 80.2004734, 13.0646179 ], [ 80.2004998, 13.064572 ], [ 80.2005403, 13.0645374 ], [ 80.2005904, 13.064518 ], [ 80.2006443, 13.0645161 ], [ 80.2006958, 13.0645319 ], [ 80.2007388, 13.0645635 ], [ 80.2007685, 13.0646073 ] ] ] } },
{ "type": "Feature", "properties": { "natural": "water", "water": "wastewater", "name": null, "id": "way/1172624858" }, "geometry": { "type": "Polygon", "coordinates": [ [ [ 80.2004119, 13.0647318 ], [ 80.2004249, 13.0647828 ], [ 80.2004203, 13.064832 ], [ 80.2004001, 13.0648773 ], [ 80.2003662, 13.0649141 ], [ 80.2003221, 13.0649386 ], [ 80.2002724, 13.0649482 ], [ 80.200222, 13.0649421 ], [ 80.2001762, 13.0649209 ], [ 80.2001397, 13.0648866 ], [ 80.200116, 13.0648429 ], [ 80.2001078, 13.0647941 ], [ 80.2001169, 13.0647423 ], [ 80.2001432, 13.0646965 ], [ 80.2001837, 13.0646618 ], [ 80.2002339, 13.0646424 ], [ 80.2002877, 13.0646405 ], [ 80.2003392, 13.0646563 ], [ 80.2003822, 13.0646879 ], [ 80.2004119, 13.0647318 ] ] ] } },
{ "type": "Feature", "properties": { "natural": "water", "water": "wastewater", "name": null, "id": "way/1172624859" }, "geometry": { "type": "Polygon", "coordinates": [ [ [ 80.1997926, 13.0642416 ], [ 80.2006263, 13.0638068 ], [ 80.2008424, 13.0642226 ], [ 80.2000142, 13.064656 ], [ 80.1997926, 13.0642416 ] ] ] } },
{ "type": "Feature", "properties": { "natural": "water", "water": "wastewater", "name": null, "id": "way/1172624861" }, "geometry": { "type": "Polygon", "coordinates": [ [ [ 80.199919, 13.0637703 ], [ 80.1999609, 13.063815 ], [ 80.1999881, 13.063876 ], [ 80.1999923, 13.0639423 ], [ 80.1999731, 13.064006 ], [ 80.1999328, 13.0640596 ], [ 80.1998762, 13.0640967 ], [ 80.1998101, 13.0641128 ], [ 80.1997422, 13.064106 ], [ 80.1996808, 13.0640771 ], [ 80.1996331, 13.0640296 ], [ 80.1996065, 13.0639749 ], [ 80.1995986, 13.0639149 ], [ 80.1996103, 13.0638554 ], [ 80.1996404, 13.0638025 ], [ 80.1996859, 13.0637612 ], [ 80.1997423, 13.0637358 ], [ 80.199804, 13.0637287 ], [ 80.1998649, 13.0637406 ], [ 80.199919, 13.0637703 ] ] ] } },
{ "type": "Feature", "properties": { "natural": "water", "water": "wastewater", "name": null, "id": "way/1172624864" }, "geometry": { "type": "Polygon", "coordinates": [ [ [ 80.2006237, 13.0651417 ], [ 80.200575, 13.0650194 ], [ 80.2008199, 13.0649269 ], [ 80.2008686, 13.0650492 ], [ 80.2006237, 13.0651417 ] ] ] } },
{ "type": "Feature", "properties": { "natural": "water", "water": "wastewater", "name": null, "id": "way/1172624865" }, "geometry": { "type": "Polygon", "coordinates": [ [ [ 80.2003397, 13.0652486 ], [ 80.200291, 13.0651263 ], [ 80.2005359, 13.0650338 ], [ 80.2005845, 13.0651561 ], [ 80.2003397, 13.0652486 ] ] ] } },
{ "type": "Feature", "properties": { "natural": "water", "water": "wastewater", "name": null, "id": "way/1172624866" }, "geometry": { "type": "Polygon", "coordinates": [ [ [ 80.1995381, 13.0647358 ], [ 80.1997621, 13.0646258 ], [ 80.1998253, 13.0647478 ], [ 80.1996013, 13.0648579 ], [ 80.1995381, 13.0647358 ] ] ] } },
{ "type": "Feature", "properties": { "natural": "water", "water": "wastewater", "name": null, "id": "way/1172624867" }, "geometry": { "type": "Polygon", "coordinates": [ [ [ 80.1994946, 13.0647623 ], [ 80.1995286, 13.0648128 ], [ 80.1995437, 13.0648707 ], [ 80.1995387, 13.0649302 ], [ 80.1995143, 13.064985 ], [ 80.199473, 13.0650292 ], [ 80.1994193, 13.065058 ], [ 80.1993589, 13.0650683 ], [ 80.1992983, 13.0650591 ], [ 80.199244, 13.0650312 ], [ 80.1992019, 13.0649878 ], [ 80.1991765, 13.0649334 ], [ 80.1991705, 13.0648734 ], [ 80.1991849, 13.0648148 ], [ 80.1992182, 13.0647639 ], [ 80.1992667, 13.0647264 ], [ 80.1993251, 13.0647064 ], [ 80.199387, 13.0647061 ], [ 80.1994457, 13.0647254 ], [ 80.1994946, 13.0647623 ] ] ] } },
{ "type": "Feature", "properties": { "natural": "water", "water": "wastewater", "name": null, "id": "way/1172624868" }, "geometry": { "type": "Polygon", "coordinates": [ [ [ 80.1992477, 13.0642823 ], [ 80.1992816, 13.0643328 ], [ 80.1992967, 13.0643907 ], [ 80.1992918, 13.0644502 ], [ 80.1992673, 13.064505 ], [ 80.199226, 13.0645492 ], [ 80.1991723, 13.064578 ], [ 80.1991119, 13.0645883 ], [ 80.1990513, 13.0645791 ], [ 80.1989971, 13.0645513 ], [ 80.1989549, 13.0645078 ], [ 80.1989295, 13.0644535 ], [ 80.1989235, 13.0643934 ], [ 80.1989379, 13.0643348 ], [ 80.1989712, 13.0642839 ], [ 80.1990197, 13.0642465 ], [ 80.1990781, 13.0642264 ], [ 80.1991401, 13.0642261 ], [ 80.1991987, 13.0642454 ], [ 80.1992477, 13.0642823 ] ] ] } },
{ "type": "Feature", "properties": { "natural": "water", "water": "wastewater", "name": null, "id": "way/1172624869" }, "geometry": { "type": "Polygon", "coordinates": [ [ [ 80.1990602, 13.0649557 ], [ 80.1991043, 13.0650051 ], [ 80.1991299, 13.0650668 ], [ 80.1991335, 13.0651333 ], [ 80.1991145, 13.0651972 ], [ 80.1990751, 13.0652515 ], [ 80.1990197, 13.0652904 ], [ 80.1989542, 13.0653094 ], [ 80.198886, 13.0653065 ], [ 80.1988225, 13.065282 ], [ 80.1987706, 13.0652387 ], [ 80.1987363, 13.0651812 ], [ 80.1987231, 13.065117 ], [ 80.1987319, 13.0650521 ], [ 80.1987616, 13.0649933 ], [ 80.1988092, 13.0649471 ], [ 80.1988695, 13.0649182 ], [ 80.1989362, 13.0649098 ], [ 80.1990021, 13.0649228 ], [ 80.1990602, 13.0649557 ] ] ] } },
{ "type": "Feature", "properties": { "natural": "water", "water": "wastewater", "name": null, "id": "way/1172624870" }, "geometry": { "type": "Polygon", "coordinates": [ [ [ 80.1987293, 13.0644376 ], [ 80.1987896, 13.0644652 ], [ 80.1988371, 13.0645109 ], [ 80.1988653, 13.0645663 ], [ 80.1988741, 13.0646276 ], [ 80.1988624, 13.0646884 ], [ 80.1988314, 13.0647425 ], [ 80.1987845, 13.0647842 ], [ 80.1987264, 13.0648092 ], [ 80.1986631, 13.064815 ], [ 80.1986012, 13.0648009 ], [ 80.1985472, 13.0647684 ], [ 80.1985065, 13.0647208 ], [ 80.1984828, 13.0646601 ], [ 80.1984811, 13.0645952 ], [ 80.1985018, 13.0645334 ], [ 80.1985423, 13.0644819 ], [ 80.1985982, 13.0644464 ], [ 80.198663, 13.064431 ], [ 80.1987293, 13.0644376 ] ] ] } },
{ "type": "Feature", "properties": { "natural": "water", "water": "wastewater", "name": null, "id": "way/1172624873" }, "geometry": { "type": "Polygon", "coordinates": [ [ [ 80.1993952, 13.064183 ], [ 80.1994348, 13.0641731 ], [ 80.1994756, 13.0641756 ], [ 80.1995135, 13.0641904 ], [ 80.1995476, 13.064219 ], [ 80.1995696, 13.0642572 ], [ 80.199577, 13.0643004 ], [ 80.1995688, 13.0643435 ], [ 80.199546, 13.0643812 ], [ 80.1995114, 13.0644092 ], [ 80.1994691, 13.064424 ], [ 80.1994241, 13.0644239 ], [ 80.1993819, 13.0644089 ], [ 80.1993502, 13.0643838 ], [ 80.199328, 13.0643503 ], [ 80.1993176, 13.0643119 ], [ 80.1993199, 13.0642721 ], [ 80.1993348, 13.0642351 ], [ 80.1993608, 13.0642043 ], [ 80.1993952, 13.064183 ] ] ] } },
{ "type": "Feature", "properties": { "natural": "water", "water": "wastewater", "name": null, "id": "way/1172624874" }, "geometry": { "type": "Polygon", "coordinates": [ [ [ 80.1983369, 13.064468 ], [ 80.1981451, 13.0641087 ], [ 80.1987446, 13.0638017 ], [ 80.1989417, 13.0641571 ], [ 80.1983369, 13.064468 ] ] ] } },
{ "type": "Feature", "properties": { "natural": "water", "water": "wastewater", "name": null, "id": "way/1172624884" }, "geometry": { "type": "Polygon", "coordinates": [ [ [ 80.2001549, 13.0676834 ], [ 80.1999182, 13.0678023 ], [ 80.1996672, 13.0673284 ], [ 80.199904, 13.0672094 ], [ 80.2001549, 13.0676834 ] ] ] } },
{ "type": "Feature", "properties": { "natural": "water", "water": "wastewater", "name": null, "id": "way/1172624885" }, "geometry": { "type": "Polygon", "coordinates": [ [ [ 80.2006711, 13.0675891 ], [ 80.200681, 13.067515 ], [ 80.2007161, 13.0674486 ], [ 80.2007722, 13.0673976 ], [ 80.2008427, 13.0673681 ], [ 80.2009193, 13.0673635 ], [ 80.2009929, 13.0673844 ], [ 80.201055, 13.0674283 ], [ 80.2010982, 13.0674901 ], [ 80.2011174, 13.0675625 ], [ 80.2011103, 13.0676369 ], [ 80.2010816, 13.0676992 ], [ 80.2010345, 13.0677498 ], [ 80.2009735, 13.0677837 ], [ 80.2009048, 13.0677976 ], [ 80.2008351, 13.06779 ], [ 80.2007712, 13.0677617 ], [ 80.2007195, 13.0677156 ], [ 80.2006849, 13.0676561 ], [ 80.2006711, 13.0675891 ] ] ] } },
{ "type": "Feature", "properties": { "natural": "water", "water": "wastewater", "name": null, "id": "way/1172624886" }, "geometry": { "type": "Polygon", "coordinates": [ [ [ 80.2001974, 13.0677596 ], [ 80.2002181, 13.0676964 ], [ 80.2002585, 13.0676428 ], [ 80.2003169, 13.0676033 ], [ 80.2003856, 13.0675849 ], [ 80.2004565, 13.0675898 ], [ 80.2005219, 13.0676173 ], [ 80.2005741, 13.0676644 ], [ 80.2006073, 13.0677257 ], [ 80.2006178, 13.0677942 ], [ 80.2006044, 13.0678623 ], [ 80.2005685, 13.0679222 ], [ 80.2005168, 13.0679655 ], [ 80.2004537, 13.0679906 ], [ 80.2003856, 13.0679948 ], [ 80.2003198, 13.0679777 ], [ 80.2002629, 13.067941 ], [ 80.200221, 13.0678887 ], [ 80.2001983, 13.067826 ], [ 80.2001974, 13.0677596 ] ] ] } },
{ "type": "Feature", "properties": { "natural": "water", "water": "wastewater", "name": null, "id": "way/1172624887" }, "geometry": { "type": "Polygon", "coordinates": [ [ [ 80.2004062, 13.0673186 ], [ 80.2004091, 13.0673765 ], [ 80.2003922, 13.0674321 ], [ 80.2003574, 13.0674792 ], [ 80.2003087, 13.0675124 ], [ 80.2002514, 13.0675282 ], [ 80.200192, 13.0675247 ], [ 80.2001371, 13.0675023 ], [ 80.2000928, 13.0674636 ], [ 80.2000641, 13.0674128 ], [ 80.2000541, 13.0673556 ], [ 80.2000635, 13.0673002 ], [ 80.2000905, 13.0672506 ], [ 80.2001324, 13.067212 ], [ 80.2001847, 13.0671885 ], [ 80.200242, 13.0671825 ], [ 80.2002983, 13.0671946 ], [ 80.2003477, 13.0672236 ], [ 80.200385, 13.0672664 ], [ 80.2004062, 13.0673186 ] ] ] } },
{ "type": "Feature", "properties": { "natural": "water", "water": "wastewater", "name": null, "id": "way/1172624888" }, "geometry": { "type": "Polygon", "coordinates": [ [ [ 80.2007627, 13.067313 ], [ 80.2007031, 13.0673315 ], [ 80.2006406, 13.0673293 ], [ 80.2005826, 13.0673067 ], [ 80.2005357, 13.0672664 ], [ 80.2005055, 13.0672131 ], [ 80.2004954, 13.067153 ], [ 80.2005067, 13.0670931 ], [ 80.2005381, 13.0670405 ], [ 80.2005858, 13.0670011 ], [ 80.2006401, 13.0669806 ], [ 80.2006981, 13.0669777 ], [ 80.2007542, 13.0669927 ], [ 80.2008027, 13.0670241 ], [ 80.2008385, 13.0670687 ], [ 80.2008582, 13.067122 ], [ 80.2008597, 13.0671787 ], [ 80.2008429, 13.0672329 ], [ 80.2008094, 13.0672793 ], [ 80.2007627, 13.067313 ] ] ] } },
{ "type": "Feature", "properties": { "natural": "water", "water": "wastewater", "name": null, "id": "way/1172624889" }, "geometry": { "type": "Polygon", "coordinates": [ [ [ 80.19991, 13.0665707 ], [ 80.1999449, 13.0665522 ], [ 80.199984, 13.0665453 ], [ 80.2000234, 13.0665508 ], [ 80.200059, 13.066568 ], [ 80.2000889, 13.0665976 ], [ 80.2001069, 13.0666353 ], [ 80.2001108, 13.0666766 ], [ 80.2001003, 13.0667168 ], [ 80.2000765, 13.0667512 ], [ 80.2000421, 13.0667759 ], [ 80.2000013, 13.0667878 ], [ 80.1999587, 13.0667857 ], [ 80.1999194, 13.0667697 ], [ 80.1998896, 13.066744 ], [ 80.1998697, 13.0667105 ], [ 80.1998615, 13.0666726 ], [ 80.1998661, 13.0666341 ], [ 80.1998828, 13.066599 ], [ 80.19991, 13.0665707 ] ] ] } },
{ "type": "Feature", "properties": { "natural": "water", "water": "wastewater", "name": null, "id": "way/1172624892" }, "geometry": { "type": "Polygon", "coordinates": [ [ [ 80.1990411, 13.0656336 ], [ 80.1992713, 13.065533 ], [ 80.1997296, 13.0665287 ], [ 80.1994996, 13.0666291 ], [ 80.1990411, 13.0656336 ] ] ] } },
{ "type": "Feature", "properties": { "natural": "water", "water": "wastewater", "name": null, "id": "way/1172624893" }, "geometry": { "type": "Polygon", "coordinates": [ [ [ 80.199352, 13.0655002 ], [ 80.1995822, 13.0653996 ], [ 80.2000405, 13.0663953 ], [ 80.1998105, 13.0664958 ], [ 80.199352, 13.0655002 ] ] ] } },
{ "type": "Feature", "properties": { "natural": "water", "water": "wastewater", "name": null, "id": "way/1172624894" }, "geometry": { "type": "Polygon", "coordinates": [ [ [ 80.1996632, 13.0653669 ], [ 80.1998934, 13.0652664 ], [ 80.2003517, 13.066262 ], [ 80.2001217, 13.0663625 ], [ 80.1996632, 13.0653669 ] ] ] } },
{ "type": "Feature", "properties": { "natural": "water", "water": "wastewater", "name": null, "id": "way/1172624896" }, "geometry": { "type": "Polygon", "coordinates": [ [ [ 80.200662, 13.0667431 ], [ 80.2008676, 13.0666481 ], [ 80.2009255, 13.0667671 ], [ 80.2007199, 13.0668621 ], [ 80.200662, 13.0667431 ] ] ] } },
{ "type": "Feature", "properties": { "natural": "water", "water": "wastewater", "name": null, "id": "way/1172624899" }, "geometry": { "type": "Polygon", "coordinates": [ [ [ 80.2011555, 13.0686404 ], [ 80.2013679, 13.0685351 ], [ 80.201336, 13.068474 ], [ 80.2014198, 13.0684325 ], [ 80.2015106, 13.0686063 ], [ 80.2012144, 13.0687531 ], [ 80.2011555, 13.0686404 ] ] ] } },
{ "type": "Feature", "properties": { "natural": "water", "water": "wastewater", "name": null, "id": "way/1172624901" }, "geometry": { "type": "Polygon", "coordinates": [ [ [ 80.2011803, 13.0684033 ], [ 80.2011234, 13.0684087 ], [ 80.2010679, 13.0683949 ], [ 80.2010206, 13.0683636 ], [ 80.2009894, 13.0683229 ], [ 80.2009727, 13.0682748 ], [ 80.2009722, 13.0682241 ], [ 80.2009879, 13.0681757 ], [ 80.2010183, 13.0681344 ], [ 80.2010603, 13.0681044 ], [ 80.2011098, 13.0680885 ], [ 80.2011619, 13.0680885 ], [ 80.2012115, 13.0681042 ], [ 80.2012536, 13.0681341 ], [ 80.2012863, 13.0681798 ], [ 80.2013011, 13.0682337 ], [ 80.2012962, 13.0682892 ], [ 80.2012722, 13.0683398 ], [ 80.201232, 13.0683794 ], [ 80.2011803, 13.0684033 ] ] ] } },
{ "type": "Feature", "properties": { "natural": "water", "water": "wastewater", "name": null, "id": "way/1172624902" }, "geometry": { "type": "Polygon", "coordinates": [ [ [ 80.2008414, 13.0682726 ], [ 80.2008843, 13.0683037 ], [ 80.2009149, 13.0683464 ], [ 80.2009302, 13.0683989 ], [ 80.2009267, 13.0684534 ], [ 80.2009049, 13.0685037 ], [ 80.2008671, 13.068544 ], [ 80.2008177, 13.0685697 ], [ 80.2007623, 13.068578 ], [ 80.2007072, 13.0685679 ], [ 80.2006587, 13.0685406 ], [ 80.2006224, 13.068499 ], [ 80.2006028, 13.0684506 ], [ 80.2006, 13.0683986 ], [ 80.2006143, 13.0683485 ], [ 80.2006442, 13.0683053 ], [ 80.2006867, 13.0682737 ], [ 80.2007372, 13.0682568 ], [ 80.2007906, 13.0682565 ], [ 80.2008414, 13.0682726 ] ] ] } },
{ "type": "Feature", "properties": { "natural": "water", "water": "wastewater", "name": null, "id": "way/1172624904" }, "geometry": { "type": "Polygon", "coordinates": [ [ [ 80.2009116, 13.0680233 ], [ 80.2009202, 13.0680117 ], [ 80.2009321, 13.0680033 ], [ 80.2009462, 13.0679991 ], [ 80.2009609, 13.0679995 ], [ 80.2009751, 13.0680047 ], [ 80.2009869, 13.0680142 ], [ 80.2009947, 13.0680269 ], [ 80.2009978, 13.0680414 ], [ 80.2009958, 13.0680561 ], [ 80.2009889, 13.0680694 ], [ 80.200978, 13.0680797 ], [ 80.2009641, 13.0680859 ], [ 80.200949, 13.0680872 ], [ 80.2009342, 13.0680837 ], [ 80.2009218, 13.0680759 ], [ 80.2009127, 13.0680647 ], [ 80.2009076, 13.0680513 ], [ 80.2009073, 13.068037 ], [ 80.2009116, 13.0680233 ] ] ] } },
{ "type": "Feature", "properties": { "natural": "water", "water": "wastewater", "name": null, "id": "way/1172624905" }, "geometry": { "type": "Polygon", "coordinates": [ [ [ 80.2011006, 13.0679868 ], [ 80.201091, 13.0679939 ], [ 80.2010795, 13.0679976 ], [ 80.2010674, 13.0679976 ], [ 80.2010559, 13.0679939 ], [ 80.2010462, 13.0679869 ], [ 80.201039, 13.0679766 ], [ 80.2010357, 13.0679645 ], [ 80.2010368, 13.067952 ], [ 80.2010421, 13.0679406 ], [ 80.2010509, 13.0679316 ], [ 80.2010624, 13.067926 ], [ 80.2010752, 13.0679245 ], [ 80.2010877, 13.0679272 ], [ 80.2010986, 13.0679338 ], [ 80.2011062, 13.067943 ], [ 80.2011104, 13.067954 ], [ 80.2011109, 13.0679658 ], [ 80.2011075, 13.0679771 ], [ 80.2011006, 13.0679868 ] ] ] } },
{ "type": "Feature", "properties": { "natural": null, "water": null, "name": "கூவம் ஆறு", "id": "way/202505379" }, "geometry": { "type": "LineString", "coordinates": [ [ 79.8434449, 13.055119 ], [ 79.8446953, 13.056413 ], [ 79.8461544, 13.0570923 ], [ 79.8471093, 13.0573849 ], [ 79.8479247, 13.0579911 ], [ 79.8490405, 13.0592871 ], [ 79.8498774, 13.0601127 ], [ 79.8510522, 13.0611945 ], [ 79.8517227, 13.0626838 ], [ 79.8525703, 13.0637341 ], [ 79.853493, 13.0648681 ], [ 79.8547482, 13.067021 ], [ 79.8564112, 13.0697696 ], [ 79.8568526, 13.0713115 ], [ 79.8570335, 13.0719434 ], [ 79.8577738, 13.0755698 ], [ 79.8582049, 13.0766831 ], [ 79.8591256, 13.0789976 ], [ 79.8605204, 13.0812967 ], [ 79.8618293, 13.0827388 ], [ 79.8631596, 13.0847871 ], [ 79.8654341, 13.0863964 ], [ 79.8671508, 13.0885701 ], [ 79.8694253, 13.0908064 ], [ 79.8712492, 13.0927919 ], [ 79.8739743, 13.0957805 ], [ 79.8753476, 13.0969927 ], [ 79.8770696, 13.0978078 ], [ 79.8778796, 13.0984975 ], [ 79.8794353, 13.0991558 ], [ 79.8809051, 13.100462 ], [ 79.8826432, 13.1011308 ], [ 79.8859692, 13.1024579 ], [ 79.8874068, 13.1027504 ], [ 79.8889625, 13.1028131 ], [ 79.8913979, 13.1035655 ], [ 79.8925459, 13.104182 ], [ 79.8935866, 13.1049971 ], [ 79.8950672, 13.1054778 ], [ 79.8962366, 13.1055614 ], [ 79.8971164, 13.1051747 ], [ 79.8989189, 13.1047776 ], [ 79.9001849, 13.1047776 ], [ 79.9013436, 13.105321 ], [ 79.902792, 13.1068675 ], [ 79.9042833, 13.1082991 ], [ 79.9061286, 13.1105039 ], [ 79.9069548, 13.1113711 ], [ 79.9092646, 13.1125692 ], [ 79.9124173, 13.1142045 ], [ 79.9269055, 13.1094258 ], [ 79.9318408, 13.1093004 ], [ 79.9491614, 13.1107633 ], [ 79.9581515, 13.1091233 ], [ 79.9632597, 13.10646 ], [ 79.9673366, 13.1029908 ], [ 79.972229, 13.1008173 ], [ 79.9816655, 13.0992104 ], [ 79.9866437, 13.0997454 ], [ 79.9901247, 13.0988319 ], [ 79.9944005, 13.0967269 ], [ 79.9960828, 13.0957237 ], [ 79.9984603, 13.0943025 ], [ 80.0017047, 13.0930485 ], [ 80.004623, 13.0918196 ], [ 80.0067001, 13.0910003 ], [ 80.009172, 13.0908164 ], [ 80.0099811, 13.0908756 ], [ 80.0113778, 13.0912929 ], [ 80.0128627, 13.0915855 ], [ 80.0150256, 13.0917527 ], [ 80.0173602, 13.0915437 ], [ 80.019918, 13.0912929 ], [ 80.0220809, 13.0903733 ], [ 80.0244842, 13.0894788 ], [ 80.026012, 13.0890775 ], [ 80.0280891, 13.0890942 ], [ 80.030561, 13.0887431 ], [ 80.0342689, 13.0883836 ], [ 80.0359254, 13.0885759 ], [ 80.0391698, 13.0895122 ], [ 80.0411783, 13.0904987 ], [ 80.0422597, 13.0915437 ], [ 80.0430923, 13.0926054 ], [ 80.0446201, 13.0942356 ], [ 80.0458775, 13.0955445 ], [ 80.0472551, 13.0967101 ], [ 80.0482421, 13.0975796 ], [ 80.0493568, 13.0981595 ], [ 80.0509715, 13.0989171 ], [ 80.0525019, 13.0996441 ], [ 80.053392, 13.100238 ], [ 80.0539488, 13.101228 ], [ 80.0541622, 13.101835 ], [ 80.0546907, 13.1035338 ], [ 80.0550227, 13.1046686 ], [ 80.0554776, 13.1057971 ], [ 80.0560527, 13.1067166 ], [ 80.0570569, 13.1074021 ], [ 80.0581556, 13.1076195 ], [ 80.0591169, 13.1075108 ], [ 80.0599151, 13.1070928 ], [ 80.0607476, 13.1062819 ], [ 80.0613141, 13.1054794 ], [ 80.0620008, 13.1048358 ], [ 80.06352, 13.1037908 ], [ 80.0644212, 13.1032892 ], [ 80.0660091, 13.1027041 ], [ 80.067554, 13.1026873 ], [ 80.069571, 13.1026037 ], [ 80.0713477, 13.1023279 ], [ 80.072721, 13.101935 ], [ 80.0739484, 13.1014919 ], [ 80.0748067, 13.1007981 ], [ 80.0753818, 13.0998451 ], [ 80.0759483, 13.0987583 ], [ 80.0767551, 13.097521 ], [ 80.077682, 13.0968355 ], [ 80.0791841, 13.0966683 ], [ 80.0811728, 13.0970504 ], [ 80.0825304, 13.0974553 ], [ 80.0831752, 13.0977718 ], [ 80.0839906, 13.0988419 ], [ 80.0847631, 13.0998618 ], [ 80.0856214, 13.1009318 ], [ 80.0864797, 13.1018012 ], [ 80.0872093, 13.1027041 ], [ 80.0879216, 13.1032474 ], [ 80.0893293, 13.1035567 ], [ 80.0903421, 13.1033561 ], [ 80.0916724, 13.1026205 ], [ 80.0935178, 13.1015337 ], [ 80.095037, 13.1001544 ], [ 80.0964961, 13.0986914 ], [ 80.0983742, 13.0965139 ], [ 80.0997535, 13.0948951 ], [ 80.1007705, 13.0936337 ], [ 80.1015859, 13.0926723 ], [ 80.1021438, 13.0915437 ], [ 80.1026159, 13.0904151 ], [ 80.1033454, 13.0893701 ], [ 80.1042295, 13.0883418 ], [ 80.1048475, 13.0871547 ], [ 80.1053796, 13.086302 ], [ 80.1058603, 13.0858338 ], [ 80.107122, 13.0852737 ], [ 80.1083665, 13.084563 ], [ 80.1095939, 13.083518 ], [ 80.1102119, 13.0825733 ], [ 80.1107698, 13.081453 ], [ 80.1114993, 13.0793964 ], [ 80.1118856, 13.0780671 ], [ 80.1121688, 13.0763448 ], [ 80.1124439, 13.075613 ], [ 80.1129721, 13.0745016 ], [ 80.1129251, 13.0734049 ], [ 80.1134659, 13.0715675 ], [ 80.1139627, 13.070183 ], [ 80.1139627, 13.0692801 ], [ 80.1137481, 13.0680092 ], [ 80.1135193, 13.0667488 ], [ 80.1137138, 13.0658103 ], [ 80.1140571, 13.0651415 ], [ 80.1146922, 13.0647485 ], [ 80.1160312, 13.06469 ], [ 80.1176105, 13.0647485 ], [ 80.1192069, 13.0650579 ], [ 80.1209064, 13.0653421 ], [ 80.1220393, 13.0658438 ], [ 80.1228462, 13.0664959 ], [ 80.1235843, 13.0668722 ], [ 80.1247773, 13.0668387 ], [ 80.1260562, 13.0667133 ], [ 80.127584, 13.0667551 ], [ 80.1287856, 13.06673 ], [ 80.1303306, 13.0665043 ], [ 80.131249, 13.0665377 ], [ 80.1325879, 13.0663287 ], [ 80.1337896, 13.0659107 ], [ 80.1346736, 13.0653756 ], [ 80.135592, 13.0645729 ], [ 80.136313, 13.0639291 ], [ 80.1371335, 13.0631881 ], [ 80.1376857, 13.0626519 ], [ 80.1379756, 13.0622789 ], [ 80.138518, 13.0621213 ], [ 80.1391143, 13.0619445 ], [ 80.1410225, 13.0618027 ], [ 80.1419139, 13.0619223 ], [ 80.1429023, 13.062095 ], [ 80.1438465, 13.0622037 ], [ 80.1446704, 13.0623291 ], [ 80.1453914, 13.0625298 ], [ 80.148867, 13.0631655 ], [ 80.1509217, 13.0625185 ], [ 80.1526092, 13.0616354 ], [ 80.153842, 13.0612245 ], [ 80.1550136, 13.0613032 ], [ 80.1585372, 13.0627458 ], [ 80.1621307, 13.0632792 ], [ 80.1628564, 13.0639786 ], [ 80.1639843, 13.0643896 ], [ 80.1678488, 13.065806 ], [ 80.1712704, 13.0660027 ], [ 80.172815, 13.0665565 ], [ 80.1736894, 13.0672851 ], [ 80.1748187, 13.070134 ], [ 80.1769171, 13.0712342 ], [ 80.1784943, 13.0717144 ], [ 80.1802202, 13.0718372 ], [ 80.1816618, 13.0719842 ], [ 80.186638, 13.0725356 ], [ 80.1885557, 13.073325 ], [ 80.1907314, 13.0749504 ], [ 80.1917434, 13.0769111 ], [ 80.1918819, 13.0773693 ], [ 80.1927106, 13.0782111 ], [ 80.1933816, 13.0787676 ], [ 80.1941278, 13.0788465 ], [ 80.1975115, 13.0782456 ], [ 80.1984605, 13.0779395 ], [ 80.199013, 13.0778131 ], [ 80.2003306, 13.0774889 ], [ 80.2024517, 13.0774787 ], [ 80.2052659, 13.0777481 ], [ 80.2066392, 13.0784504 ], [ 80.2107076, 13.0784002 ], [ 80.2122868, 13.0778066 ], [ 80.213952, 13.0765943 ], [ 80.2144013, 13.0765094 ], [ 80.2149196, 13.076675 ], [ 80.2152668, 13.076939 ], [ 80.2155262, 13.0772591 ], [ 80.2156465, 13.0777358 ], [ 80.2156266, 13.0791899 ], [ 80.2156906, 13.0794565 ], [ 80.2158555, 13.0797299 ], [ 80.2164107, 13.0802042 ], [ 80.2174156, 13.0807004 ], [ 80.2175465, 13.0807265 ], [ 80.2176681, 13.0807315 ], [ 80.2178618, 13.0807235 ], [ 80.2179389, 13.0807167 ], [ 80.2180869, 13.0806878 ], [ 80.2181667, 13.0806619 ], [ 80.2183028, 13.0806006 ], [ 80.2184107, 13.0805365 ], [ 80.2185513, 13.0804435 ], [ 80.2187547, 13.080288 ], [ 80.2189216, 13.0801642 ], [ 80.219738, 13.0794852 ], [ 80.2204751, 13.078233 ], [ 80.2217626, 13.0767532 ], [ 80.2220811, 13.0755976 ], [ 80.2221498, 13.0739255 ], [ 80.2223386, 13.0731313 ], [ 80.2225961, 13.072546 ], [ 80.2229909, 13.0721029 ], [ 80.2235059, 13.0718521 ], [ 80.2241239, 13.0717099 ], [ 80.2247505, 13.0716431 ], [ 80.2253513, 13.0717935 ], [ 80.2260379, 13.0718604 ], [ 80.2269306, 13.0719608 ], [ 80.2277288, 13.0720862 ], [ 80.2282156, 13.072278 ], [ 80.2284703, 13.0722894 ], [ 80.2286164, 13.0722926 ], [ 80.2287214, 13.0722904 ], [ 80.2288374, 13.0722766 ], [ 80.2289614, 13.0722537 ], [ 80.2290787, 13.0722278 ], [ 80.2291841, 13.0721873 ], [ 80.2292703, 13.0721313 ], [ 80.2293342, 13.0720644 ], [ 80.2293965, 13.0719664 ], [ 80.229446, 13.0718622 ], [ 80.2294777, 13.071782 ], [ 80.2295451, 13.0716115 ], [ 80.2295592, 13.0715497 ], [ 80.2295747, 13.0714412 ], [ 80.2295773, 13.0713226 ], [ 80.2295697, 13.0711868 ], [ 80.2295545, 13.0710534 ], [ 80.2295373, 13.0709487 ], [ 80.2295069, 13.070829 ], [ 80.2294166, 13.0705691 ], [ 80.2293, 13.0702925 ], [ 80.2291403, 13.0699764 ], [ 80.2290312, 13.0698307 ], [ 80.2289146, 13.0697072 ], [ 80.2288385, 13.0696281 ], [ 80.2287663, 13.0695491 ], [ 80.228708, 13.0694763 ], [ 80.2286611, 13.0694034 ], [ 80.2285799, 13.06927 ], [ 80.2284632, 13.0690486 ], [ 80.2283821, 13.0688658 ], [ 80.2283441, 13.0687448 ], [ 80.2283162, 13.068604 ], [ 80.2283187, 13.068483 ], [ 80.2283441, 13.0683818 ], [ 80.228372, 13.0683052 ], [ 80.2284061, 13.0682452 ], [ 80.2284309, 13.0682146 ], [ 80.2284504, 13.0681982 ], [ 80.2284782, 13.0681791 ], [ 80.2285191, 13.0681554 ], [ 80.2285655, 13.0681275 ], [ 80.2287305, 13.068051 ], [ 80.2289321, 13.0679688 ], [ 80.2289863, 13.0679484 ], [ 80.2290587, 13.0679216 ], [ 80.2291244, 13.067902 ], [ 80.229179, 13.0678897 ], [ 80.2292489, 13.067876 ], [ 80.2293306, 13.0678668 ], [ 80.2294525, 13.0678653 ], [ 80.2296181, 13.067879 ], [ 80.2298416, 13.0679064 ], [ 80.2300989, 13.0679533 ], [ 80.2310171, 13.0681517 ], [ 80.2311195, 13.0681721 ], [ 80.2311821, 13.0681841 ], [ 80.2312219, 13.0681905 ], [ 80.2312739, 13.068198 ], [ 80.2313422, 13.0682058 ], [ 80.2314471, 13.0682112 ], [ 80.2315286, 13.0682137 ], [ 80.231611, 13.0682136 ], [ 80.2318154, 13.0682001 ], [ 80.2322118, 13.0681657 ], [ 80.2325927, 13.0681179 ], [ 80.2335076, 13.0680054 ], [ 80.2336215, 13.0679902 ], [ 80.2337264, 13.0679705 ], [ 80.2338378, 13.0679386 ], [ 80.2339314, 13.067901 ], [ 80.2340042, 13.0678641 ], [ 80.2340617, 13.0678311 ], [ 80.2341239, 13.0677929 ], [ 80.2341871, 13.0677509 ], [ 80.2342611, 13.0676992 ], [ 80.2343256, 13.0676521 ], [ 80.2344106, 13.0675823 ], [ 80.2344556, 13.0675323 ], [ 80.2344973, 13.0674816 ], [ 80.2345688, 13.0673868 ], [ 80.2346311, 13.0673083 ], [ 80.2347056, 13.0672268 ], [ 80.2347968, 13.0671394 ], [ 80.2348957, 13.0670505 ], [ 80.2349808, 13.0669883 ], [ 80.2350796, 13.0669202 ], [ 80.2352165, 13.0668328 ], [ 80.2353763, 13.0667468 ], [ 80.2355825, 13.0666484 ], [ 80.2358098, 13.0665643 ], [ 80.2360287, 13.0665008 ], [ 80.2364853, 13.0663778 ], [ 80.2368578, 13.0663019 ], [ 80.2371145, 13.066263 ], [ 80.2373818, 13.0662363 ], [ 80.2375228, 13.0662271 ], [ 80.2376532, 13.066224 ], [ 80.2377351, 13.0662244 ], [ 80.2378321, 13.0662322 ], [ 80.2379605, 13.0662486 ], [ 80.2381015, 13.0662753 ], [ 80.2383023, 13.0663197 ], [ 80.2384626, 13.06637 ], [ 80.238639, 13.0664481 ], [ 80.2388509, 13.0665609 ], [ 80.2393604, 13.066842 ], [ 80.2396472, 13.0670016 ], [ 80.2398235, 13.0670867 ], [ 80.2400248, 13.0671821 ], [ 80.2402582, 13.0672914 ], [ 80.2404791, 13.0673886 ], [ 80.2420235, 13.0680063 ], [ 80.2423349, 13.0681281 ], [ 80.2425427, 13.0682005 ], [ 80.2427958, 13.068279 ], [ 80.2429736, 13.0683305 ], [ 80.2436343, 13.0685684 ], [ 80.2447404, 13.0691338 ], [ 80.246958, 13.0702938 ], [ 80.2475105, 13.0706259 ], [ 80.2480642, 13.0708739 ], [ 80.2486983, 13.0710307 ], [ 80.249195, 13.0710411 ], [ 80.249754, 13.0709157 ], [ 80.2503291, 13.0707224 ], [ 80.2511584, 13.0701945 ], [ 80.2521948, 13.0695246 ], [ 80.25286, 13.0689237 ], [ 80.2540939, 13.0675244 ], [ 80.2546347, 13.0669681 ], [ 80.2547043, 13.0668597 ], [ 80.2553287, 13.0661657 ], [ 80.2555197, 13.0658679 ], [ 80.2556731, 13.0654446 ], [ 80.2556626, 13.0651955 ], [ 80.2557374, 13.0648395 ], [ 80.2557343, 13.0643881 ], [ 80.25573, 13.0638821 ], [ 80.2557572, 13.0632264 ], [ 80.2557713, 13.0628876 ], [ 80.2559487, 13.0624305 ], [ 80.2560024, 13.0622921 ], [ 80.256137, 13.0620689 ], [ 80.2564081, 13.0616194 ], [ 80.2568372, 13.061238 ], [ 80.2573146, 13.0610331 ], [ 80.2580871, 13.0610917 ], [ 80.2586879, 13.0613676 ], [ 80.2596149, 13.0622037 ], [ 80.2603702, 13.0630732 ], [ 80.2606166, 13.0637819 ], [ 80.2607841, 13.0642258 ], [ 80.2608718, 13.06455 ], [ 80.2609116, 13.0647122 ], [ 80.2612718, 13.0654267 ], [ 80.2617432, 13.0658385 ], [ 80.2633667, 13.0666447 ], [ 80.2647721, 13.0668643 ], [ 80.2660704, 13.0669374 ], [ 80.267673, 13.0672288 ], [ 80.2685678, 13.067668 ], [ 80.2691603, 13.0686095 ], [ 80.2692157, 13.0698842 ], [ 80.2688506, 13.0706069 ], [ 80.2684847, 13.0714454 ], [ 80.267737, 13.0721816 ], [ 80.2660907, 13.0739218 ], [ 80.2657631, 13.0747495 ], [ 80.265743, 13.0754191 ], [ 80.2659278, 13.0763229 ], [ 80.2666991, 13.0785954 ], [ 80.2679495, 13.0796762 ], [ 80.2694086, 13.079927 ], [ 80.2706905, 13.0795577 ], [ 80.2724247, 13.0785676 ], [ 80.2727561, 13.0784744 ], [ 80.2731122, 13.078123 ], [ 80.2738182, 13.0770844 ], [ 80.274183, 13.0753078 ], [ 80.2743439, 13.0748689 ], [ 80.2744405, 13.0741268 ], [ 80.2748251, 13.0727402 ], [ 80.275234, 13.0722071 ], [ 80.2765755, 13.0710648 ], [ 80.2786849, 13.0696189 ], [ 80.2788929, 13.0694763 ], [ 80.2811674, 13.0687656 ], [ 80.282535, 13.0686192 ], [ 80.2848582, 13.0685566 ], [ 80.2865407, 13.0680568 ], [ 80.287213, 13.0678407 ], [ 80.2874807, 13.067765 ], [ 80.2877316, 13.0677025 ], [ 80.2878921, 13.0676704 ], [ 80.288137, 13.0676286 ], [ 80.2884166, 13.0675918 ], [ 80.2888377, 13.0675261 ], [ 80.2891605, 13.0674672 ], [ 80.2895437, 13.0673755 ], [ 80.2899337, 13.0672641 ], [ 80.2903602, 13.0671229 ], [ 80.2912636, 13.0668058 ] ] } }
]
}
